{"type": "FeatureCollection", "features": [{"type": "Feature", "properties": {"name": "Camino Franc\u00e9s", "attribution": "\u00a9 OpenStreetMap contributors (ODbL)", "note": "\uc9c0\ub3c4 \ud45c\uc2dc\uc6a9\uc73c\ub85c \ub2e8\uc21c\ud654\ub41c \uc120(Douglas-Peucker, \ud5c8\uc6a9\uc624\ucc28 18m). \uc815\ubc00 \uac70\ub9ac\u00b7\uace0\ub3c4 \uacc4\uc0b0\uc740 data/profiles.ts\ub97c \uc4f4\ub2e4."}, "geometry": {"type": "LineString", "coordinates": [[-1.2372336, 43.1623398], [-1.2388608, 43.159585], [-1.2388257, 43.1590601], [-1.2394186, 43.1583683], [-1.240122, 43.1563723], [-1.2415809, 43.1540915], [-1.2427971, 43.150498], [-1.242481, 43.1471909], [-1.2401475, 43.1443823], [-1.2414791, 43.1426702], [-1.2414389, 43.1415273], [-1.2409829, 43.1406035], [-1.2391936, 43.1386174], [-1.2388343, 43.1373273], [-1.2382882, 43.1366499], [-1.2380799, 43.1347808], [-1.2389406, 43.1339147], [-1.2382956, 43.1328849], [-1.2395447, 43.1312184], [-1.2411651, 43.1304745], [-1.2418898, 43.1297246], [-1.2430168, 43.1294947], [-1.2452961, 43.1303527], [-1.2442134, 43.127839], [-1.2450574, 43.1240495], [-1.2446972, 43.1231021], [-1.2433672, 43.1211752], [-1.242104, 43.1205978], [-1.242642, 43.1200047], [-1.2417615, 43.1199002], [-1.2422707, 43.1191176], [-1.2420525, 43.1187998], [-1.2412871, 43.1190852], [-1.2411511, 43.11854], [-1.2405062, 43.1188854], [-1.2399021, 43.1188446], [-1.2400142, 43.118181], [-1.2384345, 43.1178147], [-1.2376722, 43.1161106], [-1.2372521, 43.1123913], [-1.2394329, 43.1078523], [-1.2394432, 43.1065903], [-1.2381376, 43.1063627], [-1.2378994, 43.1057168], [-1.2397742, 43.1038187], [-1.2400384, 43.1012244], [-1.2423382, 43.0955184], [-1.242394, 43.0940089], [-1.2439954, 43.0914071], [-1.2445631, 43.0893182], [-1.245546, 43.0884725], [-1.2467358, 43.0895203], [-1.2498293, 43.0875462], [-1.2503365, 43.086488], [-1.2516703, 43.0857647], [-1.2521565, 43.0847326], [-1.2519168, 43.0833465], [-1.2521274, 43.0812888], [-1.254977, 43.0804804], [-1.256543, 43.0796086], [-1.2575235, 43.0801589], [-1.2584343, 43.0801606], [-1.2593831, 43.0797801], [-1.2625154, 43.0776352], [-1.2634996, 43.0756126], [-1.2663598, 43.0739857], [-1.2667877, 43.0728825], [-1.2665821, 43.0717258], [-1.2668324, 43.0711465], [-1.2685733, 43.0711164], [-1.2692743, 43.0705344], [-1.2690313, 43.068216], [-1.2677366, 43.0672544], [-1.2664872, 43.0636026], [-1.2669417, 43.0618318], [-1.2681455, 43.0613959], [-1.268353, 43.0610539], [-1.268135, 43.0598514], [-1.2661024, 43.055831], [-1.2662634, 43.0551852], [-1.2668089, 43.0548181], [-1.268422, 43.0504249], [-1.2654075, 43.047966], [-1.2647461, 43.0468431], [-1.2649136, 43.0452998], [-1.265604, 43.0447564], [-1.2664415, 43.0446706], [-1.2704229, 43.0429393], [-1.2726921, 43.0424962], [-1.2732495, 43.0426551], [-1.2771202, 43.0417226], [-1.2816238, 43.0400105], [-1.2822964, 43.0389691], [-1.2830997, 43.0385099], [-1.2875502, 43.0376473], [-1.2915999, 43.0360026], [-1.2918786, 43.0353633], [-1.2909794, 43.0348056], [-1.2917796, 43.0343809], [-1.2917928, 43.0327675], [-1.2938943, 43.0308932], [-1.2951013, 43.0306104], [-1.2961319, 43.0297344], [-1.2953641, 43.0263806], [-1.2965926, 43.0255005], [-1.297751, 43.0241291], [-1.2985217, 43.0223092], [-1.2984296, 43.0217533], [-1.3000766, 43.0205979], [-1.299799, 43.020025], [-1.2986985, 43.0202484], [-1.2994523, 43.018656], [-1.2999689, 43.0183005], [-1.3019041, 43.0178874], [-1.3021204, 43.0172027], [-1.3044648, 43.0163557], [-1.3072843, 43.0145418], [-1.3090182, 43.0124605], [-1.307967, 43.0109907], [-1.3084022, 43.0089052], [-1.3095805, 43.0084562], [-1.3102363, 43.0077008], [-1.3119284, 43.0074232], [-1.3136745, 43.0067048], [-1.316001, 43.0072571], [-1.318886, 43.008954], [-1.3193186, 43.0085899], [-1.3198966, 43.0085982], [-1.3193507, 43.005682], [-1.320837, 43.003257], [-1.3219675, 43.0022585], [-1.3246418, 43.0014327], [-1.3273413, 42.9999812], [-1.3282563, 42.997809], [-1.3303746, 42.9965166], [-1.3298198, 42.9942981], [-1.3294758, 42.9940213], [-1.3311405, 42.9923727], [-1.3347765, 42.9907308], [-1.3364783, 42.9883874], [-1.3389879, 42.9887214], [-1.3412429, 42.9895422], [-1.3419617, 42.9894451], [-1.3425809, 42.9897038], [-1.3449411, 42.9896822], [-1.3456137, 42.9892872], [-1.348106, 42.9893409], [-1.3514802, 42.989998], [-1.355222, 42.9896174], [-1.355742, 42.9892755], [-1.3596046, 42.9895183], [-1.360706, 42.9891071], [-1.361932, 42.9866045], [-1.3629394, 42.9862521], [-1.3642771, 42.9843208], [-1.3668485, 42.9820267], [-1.3673205, 42.9812506], [-1.3690389, 42.9802856], [-1.3696059, 42.979125], [-1.3725217, 42.9799236], [-1.3742691, 42.9782002], [-1.3790042, 42.9760787], [-1.3816436, 42.9755463], [-1.3819223, 42.9764002], [-1.3840304, 42.9785287], [-1.3857991, 42.9796896], [-1.3877157, 42.9802628], [-1.393065, 42.9779547], [-1.3957237, 42.9777223], [-1.3971641, 42.9772474], [-1.3984639, 42.9775741], [-1.3986186, 42.976487], [-1.4015338, 42.974113], [-1.4038903, 42.9727773], [-1.4041258, 42.9719124], [-1.4049855, 42.9717575], [-1.4059448, 42.9707591], [-1.4079094, 42.9713051], [-1.4112299, 42.9702868], [-1.4138484, 42.9700126], [-1.4167906, 42.9690299], [-1.4171243, 42.9682034], [-1.4182828, 42.9673013], [-1.4186967, 42.9675516], [-1.4213297, 42.9675355], [-1.4242605, 42.9672304], [-1.4283058, 42.9656941], [-1.4288256, 42.9659396], [-1.4312429, 42.9652676], [-1.4344076, 42.9637042], [-1.435645, 42.9635988], [-1.4376541, 42.9627414], [-1.4378456, 42.962343], [-1.4386527, 42.9620394], [-1.4434472, 42.9609195], [-1.444496, 42.9609558], [-1.4481673, 42.959893], [-1.450134, 42.9603498], [-1.4504532, 42.9609638], [-1.4517286, 42.9612899], [-1.452536, 42.9607944], [-1.4530054, 42.9588763], [-1.4533853, 42.958638], [-1.4549818, 42.9586007], [-1.4548848, 42.9560962], [-1.4554086, 42.9555895], [-1.4570132, 42.9552397], [-1.4589007, 42.9536632], [-1.4614121, 42.9538998], [-1.4628211, 42.9535611], [-1.464693, 42.9521518], [-1.4650818, 42.9510757], [-1.4637218, 42.9500131], [-1.4656417, 42.9492949], [-1.4669236, 42.9482764], [-1.467975, 42.9456266], [-1.4689951, 42.9444813], [-1.4712328, 42.9403209], [-1.4731249, 42.9385953], [-1.4772129, 42.9374733], [-1.4823071, 42.9383608], [-1.4831842, 42.9387242], [-1.4848986, 42.9385492], [-1.4876447, 42.9396884], [-1.4899031, 42.938424], [-1.4934087, 42.9376404], [-1.4953067, 42.9353901], [-1.4969198, 42.9322149], [-1.499363, 42.9306472], [-1.5023341, 42.930182], [-1.5028482, 42.9298377], [-1.5022439, 42.9280383], [-1.5028443, 42.92736], [-1.5042358, 42.9266008], [-1.5048176, 42.9252747], [-1.5044932, 42.9242412], [-1.5047027, 42.9238225], [-1.5065517, 42.9233604], [-1.5063903, 42.9229077], [-1.507753, 42.9203556], [-1.5096992, 42.9194908], [-1.5121937, 42.9159717], [-1.5138611, 42.9149242], [-1.5137959, 42.9152114], [-1.5145542, 42.9148866], [-1.5166751, 42.9132147], [-1.5167076, 42.9125204], [-1.5174957, 42.9112826], [-1.5171362, 42.9109922], [-1.517234, 42.9105225], [-1.5194272, 42.9102311], [-1.5221761, 42.9092319], [-1.5233475, 42.9090899], [-1.525224, 42.9077024], [-1.5250427, 42.90708], [-1.5253744, 42.9064276], [-1.5285659, 42.9076261], [-1.5298514, 42.9074129], [-1.5317515, 42.9065806], [-1.5330496, 42.9058616], [-1.5351767, 42.9037083], [-1.5352899, 42.9031349], [-1.5362137, 42.9030354], [-1.5388458, 42.9017296], [-1.5389217, 42.9010904], [-1.5396331, 42.9010828], [-1.5405659, 42.9006414], [-1.5419591, 42.8983573], [-1.5419731, 42.8968842], [-1.5425083, 42.8966822], [-1.54317, 42.8969997], [-1.5436599, 42.8964854], [-1.5451095, 42.8962102], [-1.5469235, 42.895029], [-1.549588, 42.8949123], [-1.5505111, 42.893949], [-1.5523728, 42.8928854], [-1.5530718, 42.8919471], [-1.5542234, 42.8914093], [-1.5555905, 42.8899271], [-1.5568571, 42.8893775], [-1.5585203, 42.8894685], [-1.5596741, 42.8877376], [-1.562349, 42.8863757], [-1.5627244, 42.8853619], [-1.5622354, 42.8839195], [-1.5625951, 42.8818884], [-1.5639848, 42.8809389], [-1.5654391, 42.878487], [-1.5661434, 42.8785875], [-1.5692513, 42.8737504], [-1.5694808, 42.872819], [-1.5687969, 42.8679248], [-1.5699544, 42.8655099], [-1.5697767, 42.8653419], [-1.5706584, 42.865028], [-1.5709171, 42.8645661], [-1.5713107, 42.8626914], [-1.5708436, 42.8617033], [-1.573197, 42.8598133], [-1.5745154, 42.8600199], [-1.5776491, 42.8575062], [-1.5781116, 42.8559448], [-1.5798102, 42.8528591], [-1.5826103, 42.8521188], [-1.5836234, 42.8522842], [-1.5838325, 42.8527109], [-1.585225, 42.8520071], [-1.5861813, 42.8511154], [-1.5857293, 42.8508763], [-1.5857857, 42.849461], [-1.5892568, 42.8441408], [-1.5898953, 42.8437627], [-1.5902377, 42.8423651], [-1.5911658, 42.8412125], [-1.5921011, 42.840846], [-1.5921755, 42.8397917], [-1.5917496, 42.8388994], [-1.5942293, 42.8383548], [-1.5993655, 42.8382011], [-1.6028207, 42.8368282], [-1.6034166, 42.836114], [-1.6042724, 42.836177], [-1.6052583, 42.834605], [-1.6087522, 42.8309763], [-1.6162821, 42.8258303], [-1.6194535, 42.8231888], [-1.6211033, 42.8232897], [-1.6217101, 42.8228537], [-1.6222508, 42.8232982], [-1.6298543, 42.8211863], [-1.6342403, 42.821563], [-1.637436, 42.8207161], [-1.6376589, 42.8211651], [-1.6385408, 42.82079], [-1.6394836, 42.8208336], [-1.6406502, 42.8218861], [-1.6432723, 42.8210253], [-1.6426766, 42.8188102], [-1.6430112, 42.8184896], [-1.6442447, 42.8181118], [-1.6451108, 42.818325], [-1.6488141, 42.8171708], [-1.6514703, 42.8155907], [-1.6518123, 42.8153534], [-1.6515354, 42.8151355], [-1.6524616, 42.8142573], [-1.6532262, 42.8123319], [-1.6526584, 42.8105321], [-1.6518846, 42.8100968], [-1.6525898, 42.8094732], [-1.6529352, 42.8096053], [-1.653203, 42.8088307], [-1.659588, 42.8051256], [-1.6632707, 42.8014811], [-1.6650973, 42.8012377], [-1.667162, 42.7978274], [-1.6685172, 42.7970092], [-1.6694646, 42.7959439], [-1.6713627, 42.7952448], [-1.6731854, 42.7940354], [-1.6749902, 42.7903805], [-1.6752438, 42.7884606], [-1.675985, 42.7879338], [-1.6763578, 42.7881219], [-1.6771452, 42.7863144], [-1.6784969, 42.7859906], [-1.6815761, 42.7826397], [-1.6859338, 42.7801008], [-1.6885126, 42.7780261], [-1.6898069, 42.7781111], [-1.6915788, 42.7750063], [-1.6952254, 42.7720958], [-1.6980111, 42.771145], [-1.6993458, 42.7702974], [-1.7006853, 42.7689205], [-1.7015549, 42.7674669], [-1.7024873, 42.7667201], [-1.705222, 42.7652831], [-1.7078778, 42.7644615], [-1.7092124, 42.7631666], [-1.7100756, 42.7629956], [-1.712403, 42.7614573], [-1.7151155, 42.7567689], [-1.7180982, 42.7533042], [-1.7185455, 42.7523047], [-1.7196627, 42.7513113], [-1.7198475, 42.7498945], [-1.7230591, 42.7479537], [-1.7235049, 42.7462945], [-1.7260093, 42.7433154], [-1.7282893, 42.7430784], [-1.7281948, 42.742016], [-1.7292611, 42.7412947], [-1.7296177, 42.7406537], [-1.7309898, 42.7404234], [-1.7345865, 42.7384614], [-1.7386964, 42.7372589], [-1.7399178, 42.7364075], [-1.7426435, 42.7358201], [-1.7431771, 42.7352497], [-1.7462871, 42.7347555], [-1.7475024, 42.7340258], [-1.7489557, 42.7323887], [-1.7491528, 42.7308065], [-1.7487665, 42.7291114], [-1.7496659, 42.726248], [-1.7496775, 42.7231953], [-1.7534871, 42.7195708], [-1.753585, 42.717109], [-1.7545885, 42.7157156], [-1.7556506, 42.7152229], [-1.7568735, 42.7137802], [-1.7582359, 42.7107008], [-1.7613729, 42.7086675], [-1.7612538, 42.7081728], [-1.7607375, 42.7078316], [-1.7609085, 42.7058833], [-1.7595335, 42.7053199], [-1.7601915, 42.7047487], [-1.7612149, 42.7014998], [-1.7618156, 42.7008301], [-1.7627912, 42.7003532], [-1.7636959, 42.6985327], [-1.7676535, 42.6951076], [-1.7693414, 42.6916771], [-1.770697, 42.6904054], [-1.7723987, 42.6879603], [-1.7746338, 42.6866534], [-1.7761226, 42.6850601], [-1.7800159, 42.6827413], [-1.7815741, 42.6813933], [-1.7842731, 42.6813559], [-1.7846021, 42.6808073], [-1.7851435, 42.6809722], [-1.786108, 42.6794083], [-1.7876725, 42.6789359], [-1.7903223, 42.679408], [-1.7914552, 42.6792984], [-1.7933753, 42.6784043], [-1.7985723, 42.6776239], [-1.8002418, 42.6768793], [-1.802254, 42.6770602], [-1.8065506, 42.6763663], [-1.8071941, 42.675709], [-1.8104953, 42.6737114], [-1.8104106, 42.6731458], [-1.8179831, 42.6714839], [-1.8193646, 42.6708743], [-1.8191242, 42.6696808], [-1.819626, 42.6692004], [-1.8241734, 42.6678169], [-1.8267904, 42.6667341], [-1.8288733, 42.6663381], [-1.8340355, 42.6643526], [-1.8399383, 42.6635208], [-1.8417733, 42.6621149], [-1.8447187, 42.6613031], [-1.8461441, 42.66216], [-1.8471849, 42.6639718], [-1.8489668, 42.6657496], [-1.8507068, 42.6660287], [-1.8536631, 42.6672184], [-1.8573829, 42.6680599], [-1.8597954, 42.6692129], [-1.8652161, 42.6687356], [-1.8689902, 42.6694207], [-1.8701582, 42.6693558], [-1.8734945, 42.6705343], [-1.8767263, 42.6712327], [-1.8780629, 42.6709375], [-1.879541, 42.6711747], [-1.8810562, 42.6720089], [-1.8837042, 42.6741425], [-1.8854912, 42.6748385], [-1.8892899, 42.6756393], [-1.8897162, 42.6759773], [-1.8908265, 42.6759382], [-1.891584, 42.6751101], [-1.8930308, 42.6752951], [-1.8941533, 42.676083], [-1.8952393, 42.6775429], [-1.8956424, 42.6776543], [-1.8958297, 42.6772539], [-1.8963575, 42.6771704], [-1.8970591, 42.6781834], [-1.8981725, 42.6777973], [-1.9006243, 42.6778523], [-1.904261, 42.6782997], [-1.9061333, 42.6792544], [-1.9125199, 42.6791934], [-1.9141764, 42.6797019], [-1.9160553, 42.6795343], [-1.9169285, 42.679074], [-1.9191983, 42.6790746], [-1.9194687, 42.6793801], [-1.9217631, 42.6793009], [-1.926481, 42.6803281], [-1.9271268, 42.6799351], [-1.9283894, 42.6799405], [-1.9287114, 42.6793034], [-1.9307962, 42.6788822], [-1.9316572, 42.6792686], [-1.9331029, 42.6805819], [-1.9349, 42.680785], [-1.9361284, 42.6813094], [-1.9371955, 42.6809333], [-1.938401, 42.6788425], [-1.9386027, 42.6777518], [-1.9408418, 42.6755006], [-1.9425107, 42.6748185], [-1.9435176, 42.6737185], [-1.9473161, 42.671264], [-1.9485204, 42.6708758], [-1.951305, 42.6693239], [-1.9552682, 42.6679303], [-1.9609121, 42.6665976], [-1.9609085, 42.6657692], [-1.9635842, 42.6645869], [-1.9662769, 42.6646382], [-1.9692741, 42.6643885], [-1.9706321, 42.6639297], [-1.9753101, 42.6637725], [-1.9755837, 42.6632457], [-1.9763267, 42.663003], [-1.9797562, 42.6637377], [-1.9813065, 42.6635012], [-1.9866517, 42.6636244], [-1.9889589, 42.6622773], [-1.9898914, 42.6612388], [-1.990579, 42.6613909], [-1.991605, 42.6594784], [-1.9921607, 42.6593402], [-1.9926471, 42.6586578], [-1.9940137, 42.6582052], [-1.9963142, 42.659733], [-1.9993045, 42.6606353], [-2.0020719, 42.6609996], [-2.0029341, 42.661413], [-2.0053713, 42.6612088], [-2.0064993, 42.6615175], [-2.0067976, 42.6612086], [-2.0075022, 42.6612397], [-2.0083043, 42.6598535], [-2.0091869, 42.660668], [-2.0101247, 42.6607759], [-2.0112708, 42.6613168], [-2.0119601, 42.6622932], [-2.0134301, 42.663358], [-2.0150887, 42.6633476], [-2.0181834, 42.6625651], [-2.0190135, 42.6626082], [-2.0212338, 42.663526], [-2.0219644, 42.6648264], [-2.0222283, 42.6663494], [-2.0242508, 42.6697499], [-2.0271752, 42.6698935], [-2.0293591, 42.6694042], [-2.0317037, 42.6668352], [-2.0323018, 42.6642946], [-2.0329458, 42.6641484], [-2.0329444, 42.6637916], [-2.0349262, 42.6622123], [-2.0354693, 42.6610575], [-2.0366055, 42.6604815], [-2.0380572, 42.6583364], [-2.0404118, 42.6564596], [-2.0410884, 42.655542], [-2.0407727, 42.6550974], [-2.0413216, 42.6545058], [-2.0411762, 42.6541402], [-2.0415759, 42.6538925], [-2.0424687, 42.6519496], [-2.044206, 42.6502362], [-2.0472425, 42.6482725], [-2.0478996, 42.6463316], [-2.0530446, 42.6472563], [-2.0557889, 42.646913], [-2.0577138, 42.6460344], [-2.0623521, 42.6449092], [-2.0683712, 42.6420247], [-2.0705456, 42.6418595], [-2.073185, 42.640808], [-2.0726697, 42.639177], [-2.0749764, 42.6389017], [-2.0755587, 42.6385286], [-2.0779513, 42.6379741], [-2.0805002, 42.6377773], [-2.0806634, 42.6375362], [-2.0820083, 42.6386846], [-2.0837848, 42.6386784], [-2.0830524, 42.637766], [-2.0832368, 42.637229], [-2.086424, 42.6357313], [-2.0868858, 42.6357498], [-2.0873354, 42.6345659], [-2.0880991, 42.6339704], [-2.0887448, 42.634023], [-2.0893092, 42.6344237], [-2.0902345, 42.633311], [-2.0922135, 42.6330651], [-2.0949953, 42.631826], [-2.0976255, 42.6321436], [-2.0984757, 42.6317031], [-2.0989435, 42.630983], [-2.1001847, 42.6305967], [-2.1010104, 42.6298022], [-2.1030211, 42.6293529], [-2.1042281, 42.6287759], [-2.1038847, 42.6282795], [-2.1036804, 42.6258879], [-2.1027141, 42.6245227], [-2.1020812, 42.622473], [-2.1022255, 42.6211228], [-2.1043551, 42.61957], [-2.1075082, 42.6185354], [-2.1101999, 42.6169997], [-2.1133621, 42.6145046], [-2.1137313, 42.6139636], [-2.1133629, 42.6124028], [-2.1144439, 42.6092721], [-2.1157855, 42.6081427], [-2.1165171, 42.6046895], [-2.1183638, 42.6044004], [-2.1194605, 42.6036972], [-2.123246, 42.6035159], [-2.1242711, 42.6031901], [-2.126756, 42.600487], [-2.1398296, 42.599332], [-2.1444083, 42.5978624], [-2.1456009, 42.5964794], [-2.1482006, 42.5968456], [-2.150857, 42.5967102], [-2.1533338, 42.5961749], [-2.156376, 42.5962468], [-2.1567596, 42.59307], [-2.1589213, 42.5928917], [-2.1693767, 42.5930156], [-2.1700801, 42.5937385], [-2.172467, 42.5937221], [-2.1741876, 42.5936415], [-2.1770324, 42.5927592], [-2.1777867, 42.5913931], [-2.1788445, 42.5910423], [-2.1804983, 42.5897249], [-2.1820454, 42.5863493], [-2.1823846, 42.5848177], [-2.1836341, 42.5837216], [-2.1872419, 42.581425], [-2.1885061, 42.5797822], [-2.1902573, 42.5764144], [-2.1932636, 42.5737584], [-2.1932304, 42.5721795], [-2.1917749, 42.569583], [-2.1924768, 42.5691884], [-2.199017, 42.5672263], [-2.2081621, 42.5660928], [-2.2236089, 42.5649691], [-2.2356805, 42.5628651], [-2.2370483, 42.5635702], [-2.2416241, 42.5638187], [-2.2456661, 42.5634593], [-2.2477986, 42.5637121], [-2.2495294, 42.5643257], [-2.2541085, 42.5635547], [-2.254943, 42.5637691], [-2.2563346, 42.5628289], [-2.2573073, 42.5629091], [-2.259225, 42.5607819], [-2.2610701, 42.5594254], [-2.2649524, 42.5575471], [-2.265017, 42.556363], [-2.2662738, 42.5552669], [-2.2664448, 42.5541784], [-2.2671049, 42.5539297], [-2.2667319, 42.5533706], [-2.267282, 42.553229], [-2.2665516, 42.5519613], [-2.2671354, 42.550965], [-2.267813, 42.5505293], [-2.2693868, 42.5505252], [-2.2706978, 42.5513225], [-2.2712591, 42.5520443], [-2.2723988, 42.5519224], [-2.2749004, 42.5510668], [-2.2772089, 42.5496698], [-2.2816319, 42.5491877], [-2.2837989, 42.5484501], [-2.2854886, 42.5472009], [-2.2862821, 42.5471615], [-2.2873941, 42.5466488], [-2.287404, 42.5453153], [-2.2878558, 42.5448309], [-2.2913924, 42.5442618], [-2.2930879, 42.543493], [-2.2934753, 42.5436319], [-2.2955916, 42.5428539], [-2.2970008, 42.5419305], [-2.2979168, 42.5417428], [-2.2997334, 42.5424279], [-2.3001492, 42.5415066], [-2.301433, 42.5418912], [-2.3015757, 42.5416069], [-2.3026888, 42.5412151], [-2.3048855, 42.5413375], [-2.3061685, 42.5411223], [-2.3063368, 42.5402965], [-2.3075819, 42.5408601], [-2.3090049, 42.5409043], [-2.3103398, 42.5406024], [-2.3108301, 42.5398285], [-2.3121024, 42.5397139], [-2.3124626, 42.539527], [-2.3123964, 42.5391528], [-2.3127584, 42.5390929], [-2.3136786, 42.5398297], [-2.3139087, 42.5385714], [-2.3147519, 42.5374874], [-2.3164692, 42.537065], [-2.318421, 42.5359677], [-2.3196807, 42.5340475], [-2.3222692, 42.5319492], [-2.3230553, 42.5291684], [-2.3238973, 42.5280652], [-2.3260315, 42.5263117], [-2.3301037, 42.5258697], [-2.3310128, 42.524678], [-2.3360833, 42.5234633], [-2.3405103, 42.5211275], [-2.3436457, 42.5198326], [-2.349916, 42.5183817], [-2.3514872, 42.5177036], [-2.3551316, 42.5171202], [-2.3561249, 42.5171811], [-2.3566465, 42.5167926], [-2.3583062, 42.516335], [-2.3622769, 42.5159408], [-2.3634498, 42.5156093], [-2.3662168, 42.5155342], [-2.369, 42.5150492], [-2.3694282, 42.5153969], [-2.3701597, 42.5153304], [-2.3700895, 42.5150654], [-2.3733038, 42.5147847], [-2.3746329, 42.5155529], [-2.3748256, 42.5151185], [-2.375915, 42.5151264], [-2.3758819, 42.51487], [-2.3763736, 42.5148957], [-2.3771863, 42.5143086], [-2.3775793, 42.5127927], [-2.3791722, 42.5128174], [-2.3791631, 42.5121278], [-2.3796207, 42.511514], [-2.379361, 42.5111325], [-2.3795402, 42.5102613], [-2.3799785, 42.5099608], [-2.3813907, 42.5097318], [-2.381964, 42.5092399], [-2.382916, 42.5077352], [-2.3837517, 42.5071357], [-2.3842665, 42.5053262], [-2.3863045, 42.503816], [-2.3874058, 42.5021588], [-2.3881032, 42.5016983], [-2.3879698, 42.5003275], [-2.3888989, 42.498267], [-2.3886456, 42.4961025], [-2.3936811, 42.4958789], [-2.3973918, 42.4953128], [-2.3991175, 42.4949544], [-2.4016864, 42.4938826], [-2.4028564, 42.4942877], [-2.4043704, 42.4938846], [-2.4045568, 42.4940515], [-2.405869, 42.4933139], [-2.4183511, 42.4898965], [-2.4188608, 42.4892065], [-2.4222335, 42.4885204], [-2.4279274, 42.4857748], [-2.4314306, 42.4848243], [-2.4343, 42.4823746], [-2.4377129, 42.4768992], [-2.4391609, 42.4761437], [-2.4402384, 42.4724985], [-2.4418666, 42.4714265], [-2.4441551, 42.4708581], [-2.4434038, 42.4688105], [-2.4464769, 42.4676868], [-2.4476244, 42.4676658], [-2.4495878, 42.4670267], [-2.4495146, 42.4666822], [-2.4501193, 42.4666303], [-2.4501153, 42.4662304], [-2.4507948, 42.4661889], [-2.4507601, 42.4658657], [-2.4514818, 42.4659325], [-2.4541656, 42.4652974], [-2.454182, 42.4649834], [-2.4548701, 42.4651284], [-2.4618875, 42.4634258], [-2.4621899, 42.4630762], [-2.4612951, 42.4611221], [-2.4623152, 42.4601937], [-2.4677784, 42.4590931], [-2.4681213, 42.4582398], [-2.4704716, 42.4582148], [-2.4720197, 42.4574788], [-2.4729488, 42.4574083], [-2.4730042, 42.4567665], [-2.4733859, 42.4565611], [-2.4773075, 42.4557923], [-2.4775009, 42.4553067], [-2.4796313, 42.4549885], [-2.4832177, 42.4535049], [-2.4868366, 42.4530294], [-2.4902078, 42.4516927], [-2.4949743, 42.4503893], [-2.4950178, 42.4499879], [-2.4975762, 42.4498796], [-2.4982302, 42.4492379], [-2.4982717, 42.4487879], [-2.4997768, 42.4481042], [-2.4998962, 42.4476363], [-2.5006306, 42.4471255], [-2.5034978, 42.4481464], [-2.5039, 42.4479657], [-2.503916, 42.4472815], [-2.5048234, 42.4471544], [-2.5052772, 42.4467565], [-2.5065772, 42.4467237], [-2.5079385, 42.4471227], [-2.5086442, 42.4469854], [-2.5132853, 42.4447915], [-2.5133314, 42.4444587], [-2.5120925, 42.4439291], [-2.5132015, 42.4432461], [-2.5133664, 42.4413685], [-2.5147958, 42.4415298], [-2.5149056, 42.4399751], [-2.5153226, 42.4390859], [-2.5143717, 42.4378082], [-2.5162646, 42.4365418], [-2.5179665, 42.4376562], [-2.5237138, 42.4400683], [-2.5290183, 42.4395667], [-2.531956, 42.4389062], [-2.5354492, 42.4384952], [-2.5389956, 42.4375959], [-2.540827, 42.4367333], [-2.542873, 42.4363255], [-2.548093, 42.4355465], [-2.5497651, 42.4358903], [-2.5509264, 42.4349918], [-2.5593266, 42.4326236], [-2.5591136, 42.4323329], [-2.5596346, 42.4301767], [-2.5607356, 42.4295456], [-2.5621026, 42.4294906], [-2.5630669, 42.4308115], [-2.5680847, 42.4301038], [-2.577059, 42.4258522], [-2.5782789, 42.4246828], [-2.579939, 42.4222583], [-2.5821509, 42.4205627], [-2.5828622, 42.4196572], [-2.5845221, 42.4187775], [-2.5871084, 42.4162373], [-2.587737, 42.4150399], [-2.5888505, 42.4151872], [-2.5940456, 42.414655], [-2.5966324, 42.4160915], [-2.5981554, 42.416516], [-2.5982385, 42.4171355], [-2.6087112, 42.4131225], [-2.6125588, 42.4122878], [-2.62237, 42.4121103], [-2.6291789, 42.4115644], [-2.6400022, 42.4113063], [-2.6418815, 42.4113937], [-2.6438119, 42.4124711], [-2.6484341, 42.4126525], [-2.6503361, 42.4111239], [-2.6507711, 42.4112693], [-2.6519557, 42.4109103], [-2.6546327, 42.4106632], [-2.6601483, 42.4113292], [-2.6632531, 42.411405], [-2.667627, 42.4121761], [-2.6712862, 42.4132264], [-2.6747304, 42.4136951], [-2.6780648, 42.4149932], [-2.6807018, 42.4144469], [-2.6833181, 42.4142456], [-2.6864058, 42.4134222], [-2.6922518, 42.4132547], [-2.693975, 42.4135844], [-2.6949039, 42.4141639], [-2.6985457, 42.4143185], [-2.6997651, 42.4161569], [-2.7003292, 42.415692], [-2.7025244, 42.4153711], [-2.7098896, 42.4160629], [-2.714777, 42.417167], [-2.7153819, 42.4177203], [-2.7160654, 42.4175812], [-2.7191832, 42.4184622], [-2.7212934, 42.4186003], [-2.7249444, 42.4182185], [-2.7258559, 42.4183692], [-2.7284755, 42.4178743], [-2.7311168, 42.4168742], [-2.7320134, 42.4173166], [-2.7335345, 42.4175694], [-2.7342188, 42.416548], [-2.7352589, 42.4166691], [-2.7354598, 42.4158168], [-2.7376058, 42.4159457], [-2.7429288, 42.4140368], [-2.7505484, 42.4156168], [-2.7517308, 42.416338], [-2.7591289, 42.4159751], [-2.7602131, 42.4164116], [-2.764752, 42.4173247], [-2.7710208, 42.4180818], [-2.7780878, 42.4198014], [-2.7808312, 42.4202086], [-2.7890472, 42.4207441], [-2.7933283, 42.4223014], [-2.7987031, 42.4233199], [-2.8025163, 42.4246963], [-2.8036339, 42.4258062], [-2.8087666, 42.4265819], [-2.8173935, 42.4295361], [-2.8201969, 42.4319739], [-2.8211732, 42.4325038], [-2.8206693, 42.4332953], [-2.831352, 42.4342473], [-2.8328416, 42.4341582], [-2.8339318, 42.4336085], [-2.8358154, 42.4335395], [-2.8412137, 42.4340157], [-2.8413675, 42.4336813], [-2.8421695, 42.4333976], [-2.8454767, 42.4327237], [-2.8485014, 42.4329351], [-2.8492413, 42.4323949], [-2.8532922, 42.4311957], [-2.8602607, 42.4273686], [-2.8650635, 42.4270114], [-2.8710494, 42.4252969], [-2.8732928, 42.4250335], [-2.8765114, 42.424234], [-2.8855202, 42.4188832], [-2.8863973, 42.4178845], [-2.8900381, 42.415698], [-2.8924867, 42.4157852], [-2.8925726, 42.4144127], [-2.8937318, 42.4143263], [-2.8953133, 42.4130502], [-2.8963271, 42.4127887], [-2.8965014, 42.4137719], [-2.8987376, 42.4152502], [-2.9051564, 42.4161045], [-2.9109325, 42.4180655], [-2.9192597, 42.4230748], [-2.9338876, 42.4360717], [-2.9352057, 42.4367052], [-2.9387882, 42.4376768], [-2.938993, 42.4382167], [-2.9527248, 42.4408867], [-2.9586889, 42.441165], [-2.962139, 42.4423625], [-2.9660173, 42.4445781], [-2.9717789, 42.4458665], [-2.9719491, 42.445356], [-2.9723073, 42.4453419], [-2.9803049, 42.4478106], [-2.9838236, 42.4486093], [-2.9858463, 42.4492689], [-2.9857797, 42.4495415], [-2.9874978, 42.4500154], [-2.9985021, 42.4515724], [-3.0047983, 42.4520681], [-3.0050957, 42.4522775], [-3.006016, 42.4520998], [-3.01579, 42.4530497], [-3.0173237, 42.4529971], [-3.0177576, 42.4527048], [-3.0249594, 42.4514378], [-3.0301518, 42.4491784], [-3.0298998, 42.4488177], [-3.0304187, 42.4490096], [-3.0330698, 42.4485977], [-3.0328992, 42.4489501], [-3.0370286, 42.4508989], [-3.0391724, 42.4487897], [-3.0429302, 42.4469171], [-3.0456192, 42.4450915], [-3.0521046, 42.4432257], [-3.0578872, 42.4399175], [-3.0622202, 42.4380643], [-3.0630957, 42.4388262], [-3.0690432, 42.4371861], [-3.0795642, 42.4376028], [-3.080132, 42.4369917], [-3.0815973, 42.4371197], [-3.0862536, 42.4363705], [-3.0866105, 42.4366445], [-3.0885385, 42.435266], [-3.092586, 42.4342003], [-3.0928927, 42.4327644], [-3.097599, 42.430475], [-3.0982009, 42.4298951], [-3.099074, 42.4275445], [-3.1020226, 42.4258736], [-3.1034765, 42.4262129], [-3.104481, 42.4268713], [-3.1058395, 42.4272603], [-3.1090738, 42.4270529], [-3.1105351, 42.4279337], [-3.1118929, 42.4298821], [-3.1135147, 42.4311763], [-3.122668, 42.4304137], [-3.1280509, 42.4310777], [-3.1293362, 42.4310145], [-3.1309906, 42.4304486], [-3.1330205, 42.4289196], [-3.1357827, 42.4281392], [-3.1360804, 42.4273789], [-3.1385416, 42.4271843], [-3.1585647, 42.4206279], [-3.1770292, 42.4159271], [-3.1796885, 42.4159125], [-3.1807867, 42.4170234], [-3.1819394, 42.4176781], [-3.1859903, 42.418497], [-3.1877981, 42.4195737], [-3.1885438, 42.420748], [-3.1891472, 42.4207851], [-3.1891205, 42.4212082], [-3.1900738, 42.4212718], [-3.1936473, 42.4200604], [-3.1956442, 42.4188845], [-3.2003615, 42.4179666], [-3.2010974, 42.4176256], [-3.2032468, 42.4184813], [-3.2041082, 42.4185536], [-3.2053913, 42.4180571], [-3.2070807, 42.4169011], [-3.2182417, 42.4129568], [-3.2240812, 42.4123315], [-3.2279474, 42.4114575], [-3.230418, 42.4112912], [-3.2334437, 42.4114683], [-3.2360814, 42.4121948], [-3.2439173, 42.4131528], [-3.2516755, 42.4086222], [-3.2541344, 42.4064987], [-3.2590597, 42.4047258], [-3.2611643, 42.4046678], [-3.2618946, 42.4043768], [-3.2633752, 42.4047175], [-3.2643946, 42.4043989], [-3.2727157, 42.4046846], [-3.2740576, 42.4050378], [-3.2782085, 42.4051109], [-3.2814369, 42.4056928], [-3.2819654, 42.4063747], [-3.28401, 42.4050595], [-3.2879887, 42.4041498], [-3.2893078, 42.4043025], [-3.2912373, 42.4040579], [-3.2937999, 42.4031716], [-3.300945, 42.4014661], [-3.3028962, 42.3966834], [-3.3023136, 42.3956834], [-3.3053008, 42.3921273], [-3.3080443, 42.3901849], [-3.3087411, 42.3890415], [-3.3098557, 42.3880556], [-3.3105007, 42.3883398], [-3.3112662, 42.3876692], [-3.3158339, 42.3885986], [-3.3187871, 42.3878885], [-3.3224991, 42.386365], [-3.3251498, 42.3857689], [-3.3250126, 42.3846876], [-3.3253884, 42.3840795], [-3.3289191, 42.3815186], [-3.3301375, 42.3800531], [-3.3324383, 42.3781112], [-3.3354549, 42.3762439], [-3.3369406, 42.3748535], [-3.3417669, 42.3730564], [-3.3475046, 42.3703872], [-3.3500709, 42.3680081], [-3.3541064, 42.366402], [-3.357863, 42.365934], [-3.365671, 42.366391], [-3.3679515, 42.3670189], [-3.3710152, 42.3686915], [-3.3747797, 42.3695263], [-3.3792619, 42.3700188], [-3.3915918, 42.374098], [-3.3942437, 42.3743002], [-3.3975756, 42.3751106], [-3.4102067, 42.3772928], [-3.4125051, 42.3772554], [-3.4167794, 42.3778704], [-3.4185247, 42.377983], [-3.421061, 42.3776476], [-3.4292903, 42.3774336], [-3.4326193, 42.3768604], [-3.4340189, 42.3760028], [-3.4366486, 42.3756739], [-3.4409268, 42.3763224], [-3.4413241, 42.3759749], [-3.4483817, 42.3746913], [-3.4522417, 42.3745322], [-3.4544599, 42.3741791], [-3.4631824, 42.3719353], [-3.4653408, 42.3718378], [-3.4684493, 42.3722801], [-3.4693337, 42.3721115], [-3.4715091, 42.3723497], [-3.4733397, 42.3719938], [-3.4765028, 42.3702244], [-3.4782873, 42.3697378], [-3.4796218, 42.3702676], [-3.4804812, 42.3702433], [-3.4844607, 42.3716679], [-3.4891615, 42.3717171], [-3.5017836, 42.3740927], [-3.5055206, 42.3752739], [-3.5096926, 42.377685], [-3.5103652, 42.3773038], [-3.5123018, 42.3771408], [-3.5152105, 42.3779029], [-3.5165561, 42.3779714], [-3.5197224, 42.3789061], [-3.5216964, 42.3791012], [-3.5231202, 42.3790022], [-3.5237749, 42.3786895], [-3.5261285, 42.3793195], [-3.5275597, 42.3792356], [-3.529329, 42.3801093], [-3.5307698, 42.3802872], [-3.5343939, 42.3795972], [-3.5381835, 42.3774885], [-3.5400772, 42.3772011], [-3.5450218, 42.3772262], [-3.5486914, 42.37635], [-3.5508946, 42.3756679], [-3.5522684, 42.3746636], [-3.5541022, 42.3738806], [-3.553842, 42.3719718], [-3.5546084, 42.3704135], [-3.5542281, 42.3693977], [-3.5564661, 42.368257], [-3.5572403, 42.36763], [-3.5574725, 42.3670122], [-3.5573005, 42.3652397], [-3.5554501, 42.3629966], [-3.55574, 42.3616697], [-3.5571175, 42.3603186], [-3.5617928, 42.3585498], [-3.5647798, 42.3587663], [-3.5676867, 42.358485], [-3.5730781, 42.3595243], [-3.5811245, 42.3597374], [-3.5831372, 42.3604093], [-3.5851113, 42.3599824], [-3.5920026, 42.3611644], [-3.594116, 42.3620974], [-3.5961801, 42.3622468], [-3.5984969, 42.3631565], [-3.6007837, 42.3636606], [-3.6017279, 42.3645915], [-3.6014014, 42.3658334], [-3.6016295, 42.3664881], [-3.6028235, 42.3673609], [-3.6038985, 42.3674931], [-3.6047788, 42.3671262], [-3.6089283, 42.3639614], [-3.6098616, 42.3638706], [-3.6127348, 42.3643272], [-3.6143146, 42.3638731], [-3.6154218, 42.3628708], [-3.6167841, 42.3640892], [-3.6199511, 42.3645471], [-3.6261037, 42.3633403], [-3.627566, 42.3631448], [-3.6276573, 42.3633988], [-3.6306749, 42.3629117], [-3.6385962, 42.3613326], [-3.6395465, 42.361702], [-3.6401626, 42.3614456], [-3.6404378, 42.3616873], [-3.6410957, 42.3608578], [-3.6464276, 42.3598543], [-3.6510197, 42.3586059], [-3.6512508, 42.3587879], [-3.6516489, 42.3584452], [-3.6623713, 42.3554758], [-3.6630891, 42.3555471], [-3.6633981, 42.3551658], [-3.6689887, 42.3534479], [-3.6771466, 42.348997], [-3.6808021, 42.348372], [-3.6826718, 42.3466696], [-3.6863152, 42.3446093], [-3.6867252, 42.3455176], [-3.6919375, 42.3438168], [-3.6964101, 42.3428853], [-3.6992257, 42.3428401], [-3.7010742, 42.3433312], [-3.702277, 42.3431555], [-3.7039059, 42.3422177], [-3.7052149, 42.3406495], [-3.706548, 42.3401797], [-3.7111531, 42.3415499], [-3.7131796, 42.3418108], [-3.7144754, 42.3426875], [-3.7149383, 42.3418363], [-3.7159265, 42.3414384], [-3.716252, 42.340947], [-3.7182619, 42.3402287], [-3.7185253, 42.3404382], [-3.7263975, 42.3410547], [-3.7274944, 42.3412952], [-3.7273339, 42.3416052], [-3.7292135, 42.3417844], [-3.7294429, 42.3420138], [-3.7359467, 42.3425695], [-3.7364747, 42.3431231], [-3.7369752, 42.3429977], [-3.7379235, 42.3433972], [-3.7397392, 42.3436473], [-3.7446745, 42.343555], [-3.7477667, 42.3448663], [-3.7499707, 42.3454468], [-3.751827, 42.346446], [-3.7555043, 42.3474691], [-3.759166, 42.348283], [-3.7640426, 42.3484311], [-3.7669324, 42.3494326], [-3.7680398, 42.350113], [-3.7678917, 42.3506085], [-3.7711099, 42.3517476], [-3.7769702, 42.3525648], [-3.7775305, 42.3530379], [-3.7790749, 42.3524143], [-3.7818717, 42.3522482], [-3.7843672, 42.3514316], [-3.785537, 42.3530687], [-3.7867568, 42.353355], [-3.7868031, 42.3519214], [-3.7886495, 42.3510232], [-3.7916796, 42.3505886], [-3.794454, 42.3506828], [-3.7954409, 42.3516629], [-3.7963998, 42.3511993], [-3.7959939, 42.3503652], [-3.7966567, 42.3498587], [-3.7989261, 42.3499607], [-3.800241, 42.3497295], [-3.8042679, 42.3475303], [-3.810848, 42.3479174], [-3.8135876, 42.348376], [-3.8151764, 42.3489352], [-3.8164981, 42.3485672], [-3.8166273, 42.3488008], [-3.8187245, 42.349196], [-3.8195901, 42.3489016], [-3.8208705, 42.3493168], [-3.8240108, 42.349009], [-3.8284466, 42.3476315], [-3.8288012, 42.3459995], [-3.8303963, 42.3434207], [-3.8333625, 42.3413214], [-3.8334908, 42.3406712], [-3.8347509, 42.3404282], [-3.8353682, 42.3399057], [-3.8402642, 42.3404802], [-3.8435595, 42.3401712], [-3.8464855, 42.3403647], [-3.8493038, 42.340694], [-3.8502992, 42.3411411], [-3.853748, 42.3414453], [-3.8584162, 42.3408817], [-3.8639969, 42.3407376], [-3.8661702, 42.341284], [-3.8715292, 42.3418946], [-3.8743189, 42.3420365], [-3.8790679, 42.3416197], [-3.8885314, 42.3424418], [-3.8910739, 42.3421119], [-3.8961965, 42.3408532], [-3.9055814, 42.3405473], [-3.9092711, 42.3407323], [-3.9175254, 42.3401756], [-3.9191471, 42.3399806], [-3.9219136, 42.3388599], [-3.9247415, 42.3382382], [-3.927007, 42.3385851], [-3.9300119, 42.3375559], [-3.933395, 42.3378916], [-3.9428599, 42.3354172], [-3.9449677, 42.3342298], [-3.9478733, 42.3333357], [-3.9500883, 42.3322451], [-3.9507284, 42.3322846], [-3.9556249, 42.3292137], [-3.9583287, 42.3282954], [-3.9595691, 42.3282151], [-3.9636726, 42.328703], [-3.9725336, 42.3274441], [-3.981885, 42.3278575], [-3.9841823, 42.3266054], [-3.9876442, 42.325905], [-3.9930742, 42.3260029], [-3.9987739, 42.3238345], [-4.0170179, 42.319636], [-4.029402, 42.314677], [-4.0300291, 42.3141496], [-4.0397491, 42.3124727], [-4.0416182, 42.312739], [-4.0453768, 42.3126764], [-4.0471154, 42.31354], [-4.0494566, 42.3140291], [-4.0511369, 42.3137258], [-4.0534591, 42.3140246], [-4.056626, 42.3133657], [-4.0642644, 42.3106168], [-4.0703794, 42.3107972], [-4.0725098, 42.3099221], [-4.0773038, 42.3090916], [-4.081345, 42.3079018], [-4.0843665, 42.3064743], [-4.0876613, 42.3040174], [-4.0873931, 42.3030532], [-4.0912734, 42.301495], [-4.0931212, 42.2986652], [-4.0960713, 42.2951096], [-4.0989627, 42.2927725], [-4.1020167, 42.2916204], [-4.1237396, 42.2922603], [-4.1262279, 42.2920472], [-4.128387, 42.2926115], [-4.1289979, 42.2922229], [-4.1315627, 42.2924563], [-4.1328887, 42.2903703], [-4.1339571, 42.2893119], [-4.135293, 42.2886844], [-4.1383748, 42.2879672], [-4.1396499, 42.2882125], [-4.1447262, 42.2903238], [-4.1458899, 42.2899568], [-4.150474, 42.2900469], [-4.1573799, 42.2896856], [-4.1602086, 42.2899898], [-4.1628478, 42.2899505], [-4.1655431, 42.2911058], [-4.1681909, 42.2907343], [-4.1693431, 42.2908423], [-4.1701033, 42.2902925], [-4.1715493, 42.2900628], [-4.173352, 42.2891102], [-4.17622, 42.2887072], [-4.1790278, 42.2872872], [-4.1818644, 42.287415], [-4.1842059, 42.2871538], [-4.1883106, 42.2859214], [-4.1926034, 42.2861872], [-4.1977765, 42.2859935], [-4.2011495, 42.2863645], [-4.2032136, 42.2857809], [-4.2104117, 42.2854082], [-4.2158003, 42.2837619], [-4.2231031, 42.2825875], [-4.2266398, 42.2811875], [-4.2335886, 42.2816987], [-4.2367269, 42.2816549], [-4.2392229, 42.2808589], [-4.2430357, 42.2790064], [-4.244679, 42.2787082], [-4.2478565, 42.2775018], [-4.2487043, 42.2777979], [-4.2497786, 42.2789193], [-4.2505739, 42.2820187], [-4.2524839, 42.2836008], [-4.253509, 42.2849023], [-4.25651, 42.2871216], [-4.2584885, 42.2872868], [-4.2614351, 42.2870641], [-4.2641908, 42.2855565], [-4.2743604, 42.2825315], [-4.2836536, 42.2808636], [-4.2866092, 42.2809215], [-4.291435, 42.2791805], [-4.2966558, 42.2787438], [-4.2977659, 42.2780816], [-4.3028682, 42.2763799], [-4.309782, 42.2744792], [-4.3157516, 42.2720109], [-4.3252427, 42.2699106], [-4.3302583, 42.2680792], [-4.3406642, 42.2631519], [-4.3435186, 42.2621091], [-4.345549, 42.2608198], [-4.3460301, 42.259947], [-4.3470543, 42.2591353], [-4.3489499, 42.2612175], [-4.3497482, 42.2615886], [-4.3511939, 42.2630236], [-4.353788, 42.2618865], [-4.3580519, 42.2594543], [-4.3645509, 42.2583092], [-4.3806636, 42.2583688], [-4.3857292, 42.2597185], [-4.3888804, 42.2630526], [-4.3974753, 42.264604], [-4.3990157, 42.2637609], [-4.3990892, 42.2642642], [-4.4012239, 42.2660647], [-4.4020351, 42.2663225], [-4.4063051, 42.2660258], [-4.407762, 42.2652854], [-4.4134756, 42.2650121], [-4.4144806, 42.2653196], [-4.4151948, 42.265126], [-4.4168322, 42.265249], [-4.4181276, 42.2657298], [-4.4194586, 42.2655282], [-4.4422378, 42.2677242], [-4.4454047, 42.2693574], [-4.4481734, 42.2686731], [-4.4492795, 42.2691306], [-4.4502006, 42.2687177], [-4.4512133, 42.26873], [-4.4618573, 42.2727857], [-4.4637934, 42.2737705], [-4.4793613, 42.2835296], [-4.4841971, 42.287481], [-4.4982891, 42.2971605], [-4.5017267, 42.2990751], [-4.532276, 42.3119385], [-4.5418788, 42.3148503], [-4.5424085, 42.3153729], [-4.5431416, 42.3152019], [-4.5667562, 42.3224957], [-4.571617, 42.3246271], [-4.5960171, 42.3373022], [-4.5992682, 42.3374174], [-4.6011505, 42.3371507], [-4.6034116, 42.3376], [-4.6041497, 42.3399984], [-4.6058671, 42.3393636], [-4.6067243, 42.3397008], [-4.6083412, 42.3396082], [-4.6106442, 42.3407335], [-4.6129755, 42.3407232], [-4.6134354, 42.3404932], [-4.6149915, 42.3409288], [-4.6210901, 42.3413334], [-4.6220097, 42.3411278], [-4.6224784, 42.3414549], [-4.6525244, 42.3439853], [-4.6576888, 42.3450917], [-4.6601939, 42.3442978], [-4.6711122, 42.3438158], [-4.6905008, 42.3418254], [-4.704287, 42.3400993], [-4.7586849, 42.3320921], [-4.7713384, 42.3296184], [-4.7782856, 42.3290918], [-4.7990744, 42.3288516], [-4.8122869, 42.3295197], [-4.8250944, 42.3364946], [-4.8334667, 42.3403202], [-4.8350533, 42.3406689], [-4.8404677, 42.3427761], [-4.845034, 42.3437777], [-4.8566348, 42.347956], [-4.8586413, 42.3481089], [-4.8598695, 42.3476555], [-4.8620986, 42.3487048], [-4.8644485, 42.3512818], [-4.8655446, 42.3545282], [-4.8658981, 42.354746], [-4.8651039, 42.3559362], [-4.8650465, 42.3578021], [-4.866517, 42.3623769], [-4.8674823, 42.3632423], [-4.8748306, 42.3658933], [-4.8874891, 42.36466], [-4.8892982, 42.3639606], [-4.8903154, 42.3630191], [-4.8903645, 42.3625019], [-4.8910945, 42.3620607], [-4.8914322, 42.3624506], [-4.8920523, 42.3623945], [-4.895526, 42.3611282], [-4.8982584, 42.3606068], [-4.9026079, 42.3603387], [-4.9054265, 42.3613582], [-4.9100832, 42.359096], [-4.9111436, 42.3594007], [-4.9125968, 42.3593225], [-4.9170394, 42.3608207], [-4.9205437, 42.3607141], [-4.9221661, 42.3609584], [-4.9266522, 42.3602625], [-4.9269953, 42.3605828], [-4.927379, 42.3600803], [-4.9287441, 42.3597616], [-4.9299099, 42.3590173], [-4.9310702, 42.3587254], [-4.9344168, 42.3595005], [-4.9373417, 42.3597606], [-4.9394613, 42.3594051], [-4.9413512, 42.3595548], [-4.9454964, 42.3591574], [-4.9466013, 42.3603318], [-4.9478906, 42.3631803], [-4.9490636, 42.3642333], [-4.9501298, 42.3643151], [-4.9511673, 42.3642318], [-4.9513939, 42.363877], [-4.9527075, 42.363359], [-4.9544327, 42.3636634], [-4.9548033, 42.3641284], [-4.9569336, 42.363924], [-4.959848, 42.3626923], [-4.9617642, 42.3621566], [-4.9639743, 42.3619108], [-4.9682107, 42.3604079], [-4.9693528, 42.3611378], [-4.9708052, 42.3613737], [-4.9734553, 42.3609132], [-4.9775857, 42.3607214], [-4.9826486, 42.361017], [-4.9883293, 42.3631581], [-4.9938234, 42.3632053], [-4.9973541, 42.3643317], [-4.9961542, 42.3668745], [-4.9999816, 42.367344], [-4.9994476, 42.3704514], [-4.9997596, 42.3706055], [-5.0011904, 42.3697915], [-5.0022905, 42.3695285], [-5.0062785, 42.3694495], [-5.0121307, 42.3699842], [-5.0126951, 42.3702822], [-5.0131468, 42.3700393], [-5.0158086, 42.369995], [-5.0227619, 42.3701656], [-5.0238979, 42.3709607], [-5.0258425, 42.3714346], [-5.0263965, 42.3708431], [-5.0271835, 42.3709523], [-5.0275318, 42.3705894], [-5.0309954, 42.3707017], [-5.0343061, 42.3702584], [-5.0351363, 42.3698565], [-5.0359745, 42.3687275], [-5.0369254, 42.3688744], [-5.0451714, 42.372066], [-5.0488435, 42.37395], [-5.0495736, 42.374012], [-5.0498671, 42.374462], [-5.0518956, 42.3755061], [-5.0635271, 42.3782751], [-5.0683658, 42.3809959], [-5.071804, 42.3821388], [-5.0773537, 42.3823863], [-5.0782907, 42.382906], [-5.0838338, 42.3837856], [-5.089809, 42.3841679], [-5.097158, 42.3839306], [-5.1109394, 42.384757], [-5.1200946, 42.3870405], [-5.1323351, 42.3894792], [-5.1448066, 42.387698], [-5.1463663, 42.3884833], [-5.1473072, 42.3895279], [-5.1487438, 42.3903462], [-5.1516786, 42.3915831], [-5.1568492, 42.3943717], [-5.1631678, 42.3970742], [-5.1669508, 42.398026], [-5.1839399, 42.4047597], [-5.2012355, 42.4126287], [-5.2190926, 42.4219648], [-5.2223521, 42.4229492], [-5.2279858, 42.4266449], [-5.2338342, 42.4294645], [-5.237061, 42.4309778], [-5.2450351, 42.4336568], [-5.2549048, 42.4394618], [-5.2623849, 42.4446545], [-5.2680311, 42.4479993], [-5.2933545, 42.4584403], [-5.3110558, 42.4638939], [-5.3183222, 42.4652966], [-5.32803, 42.4645186], [-5.3287474, 42.4649179], [-5.3296311, 42.4673046], [-5.3304838, 42.4680148], [-5.3318685, 42.4683506], [-5.3372967, 42.468419], [-5.3379983, 42.4686927], [-5.3396205, 42.4701805], [-5.3405962, 42.470498], [-5.3477489, 42.4707103], [-5.3525693, 42.4724316], [-5.353492, 42.4736827], [-5.3533231, 42.4744348], [-5.3548098, 42.4754841], [-5.3556394, 42.4753347], [-5.3560412, 42.4756193], [-5.3563724, 42.4754812], [-5.3582289, 42.4758082], [-5.3653392, 42.4791228], [-5.3857034, 42.4853892], [-5.4052911, 42.4937631], [-5.4078835, 42.4944411], [-5.4086411, 42.495281], [-5.4150703, 42.4977273], [-5.4164223, 42.498656], [-5.4174556, 42.4989456], [-5.4191747, 42.5001953], [-5.425407, 42.5086821], [-5.4260275, 42.5090381], [-5.4265786, 42.5105551], [-5.4335911, 42.5201295], [-5.4343829, 42.5207331], [-5.4342882, 42.5210586], [-5.4426612, 42.5324791], [-5.4443261, 42.5328873], [-5.4456149, 42.5345206], [-5.4455577, 42.5348371], [-5.4447467, 42.5353158], [-5.4485455, 42.5406735], [-5.4504579, 42.5427635], [-5.4512726, 42.5427258], [-5.4524857, 42.5434097], [-5.4581678, 42.5447965], [-5.4665915, 42.5508219], [-5.4665835, 42.5513699], [-5.4703395, 42.5547547], [-5.4731465, 42.5562499], [-5.4753749, 42.5570321], [-5.4793066, 42.5593223], [-5.4832515, 42.5625989], [-5.4855421, 42.5634277], [-5.4863921, 42.5643866], [-5.4882727, 42.5644028], [-5.4971453, 42.5676516], [-5.5033623, 42.5684273], [-5.5068341, 42.5695362], [-5.5469042, 42.5782777], [-5.5524011, 42.5808841], [-5.554753, 42.5813011], [-5.5552572, 42.5811751], [-5.5567677, 42.5824151], [-5.5563249, 42.582816], [-5.56031, 42.5869653], [-5.5610031, 42.5873629], [-5.5629473, 42.5902751], [-5.564944, 42.5916852], [-5.5662504, 42.5922522], [-5.5695763, 42.5952917], [-5.5702896, 42.5980634], [-5.5674625, 42.5987597], [-5.5675757, 42.5993131], [-5.5700152, 42.599051], [-5.5707617, 42.6004906], [-5.5704739, 42.6005643], [-5.5705737, 42.6010608], [-5.570891, 42.6016437], [-5.5713121, 42.6017291], [-5.5751727, 42.6020522], [-5.5754128, 42.6017393], [-5.5760764, 42.6016558], [-5.5802766, 42.6018329], [-5.5825225, 42.601443], [-5.5899982, 42.5986963], [-5.6012253, 42.5979754], [-5.6056656, 42.5964465], [-5.6086639, 42.5961144], [-5.6120151, 42.5946813], [-5.6120302, 42.5942849], [-5.6132475, 42.5943784], [-5.618217, 42.5921411], [-5.6212681, 42.591089], [-5.626067, 42.5885572], [-5.6268155, 42.587651], [-5.628851, 42.5864496], [-5.6289393, 42.5860173], [-5.6298975, 42.5859631], [-5.6299924, 42.5856737], [-5.6317753, 42.5848492], [-5.6365997, 42.5828728], [-5.6409491, 42.5801833], [-5.6435602, 42.5781371], [-5.6459688, 42.5774206], [-5.6475695, 42.5773637], [-5.6484922, 42.5768502], [-5.6494996, 42.5767372], [-5.6499631, 42.5763137], [-5.6503301, 42.576535], [-5.6544867, 42.5744064], [-5.6578096, 42.5732191], [-5.6584058, 42.5726937], [-5.6585135, 42.5713908], [-5.6577308, 42.5707525], [-5.6583743, 42.5701615], [-5.6615239, 42.5722209], [-5.6656558, 42.571509], [-5.6744145, 42.5714993], [-5.6811742, 42.5696422], [-5.6861627, 42.5675523], [-5.7003739, 42.5601083], [-5.7058105, 42.5568817], [-5.7057889, 42.5571507], [-5.7203445, 42.550422], [-5.7343634, 42.5400489], [-5.736864, 42.5386826], [-5.7511393, 42.5282564], [-5.7613791, 42.5212382], [-5.7640944, 42.5200796], [-5.7653269, 42.5183714], [-5.7655821, 42.5184306], [-5.7683673, 42.5165009], [-5.7708178, 42.515898], [-5.7739565, 42.514092], [-5.7735684, 42.5134759], [-5.7775402, 42.5120554], [-5.8031541, 42.4982085], [-5.8101949, 42.494067], [-5.8133594, 42.4925475], [-5.8137466, 42.4928561], [-5.8162704, 42.4912488], [-5.8254827, 42.4863524], [-5.8292933, 42.4852329], [-5.8289646, 42.4844944], [-5.8658102, 42.4647484], [-5.873853, 42.4639148], [-5.8793068, 42.4640416], [-5.8880626, 42.4630045], [-5.8925732, 42.4617906], [-5.8945107, 42.4607804], [-5.8967372, 42.4594785], [-5.9012607, 42.4554877], [-5.91811, 42.4524697], [-5.9197395, 42.4522069], [-5.9209415, 42.4523093], [-5.9219755, 42.4517879], [-5.9366642, 42.4489949], [-5.9429538, 42.4472229], [-5.9433543, 42.4468301], [-5.9461017, 42.4463156], [-5.9807181, 42.4481878], [-5.9830945, 42.4494924], [-5.9829277, 42.4496528], [-5.9846841, 42.4508141], [-5.9850127, 42.4514484], [-5.9858459, 42.451542], [-5.9889627, 42.4532236], [-5.9903568, 42.4535236], [-5.9956554, 42.4533393], [-6.0032433, 42.4545453], [-6.0059594, 42.4542972], [-6.0146378, 42.4541852], [-6.0223476, 42.454655], [-6.0235554, 42.4538961], [-6.0241273, 42.4538407], [-6.0255091, 42.4539004], [-6.0256912, 42.4543163], [-6.0337046, 42.454744], [-6.0439326, 42.4559262], [-6.0443924, 42.4547147], [-6.044652, 42.4547178], [-6.0444556, 42.4544348], [-6.0446048, 42.4546442], [-6.0446484, 42.4543504], [-6.0449141, 42.4545901], [-6.0446468, 42.454341], [-6.0451269, 42.4546828], [-6.0477933, 42.4547398], [-6.0478175, 42.4543241], [-6.0502936, 42.4534692], [-6.0503159, 42.4527875], [-6.0506916, 42.4531703], [-6.0514546, 42.4530903], [-6.0527233, 42.4541984], [-6.0530743, 42.4548865], [-6.0534386, 42.4547781], [-6.0543141, 42.4561159], [-6.055576, 42.4564971], [-6.0558393, 42.4568067], [-6.0553367, 42.4572623], [-6.0569722, 42.4574182], [-6.0574402, 42.4577056], [-6.0589276, 42.456783], [-6.0625039, 42.458911], [-6.0657999, 42.4585852], [-6.0684516, 42.4586719], [-6.073361, 42.4593475], [-6.0765585, 42.4591241], [-6.0809789, 42.4592543], [-6.0922265, 42.4616244], [-6.0963315, 42.461728], [-6.0987137, 42.4604403], [-6.102032, 42.4603532], [-6.1063119, 42.4593634], [-6.1189141, 42.4572446], [-6.1267996, 42.455499], [-6.1319786, 42.4548742], [-6.1450354, 42.4548183], [-6.1491954, 42.4554042], [-6.1576811, 42.455091], [-6.1623921, 42.4555355], [-6.1760854, 42.4582884], [-6.183188, 42.4594118], [-6.1849836, 42.46001], [-6.1921933, 42.461068], [-6.1985585, 42.4610684], [-6.2029051, 42.4616316], [-6.2043223, 42.4619399], [-6.2060506, 42.4627762], [-6.2076492, 42.4630165], [-6.208074, 42.4630278], [-6.2083974, 42.4625686], [-6.2151172, 42.4631659], [-6.2172333, 42.4636689], [-6.218605, 42.4645334], [-6.2219167, 42.4640342], [-6.2246442, 42.4642065], [-6.2370667, 42.4685989], [-6.2444256, 42.4716018], [-6.2505142, 42.4731738], [-6.2526643, 42.4742184], [-6.2543276, 42.4741936], [-6.2553811, 42.4749349], [-6.2572089, 42.4753249], [-6.2613445, 42.4779503], [-6.2703046, 42.4791003], [-6.2728784, 42.4789619], [-6.2786035, 42.4802766], [-6.2812331, 42.4815426], [-6.2830985, 42.4820484], [-6.2878103, 42.4828636], [-6.2892801, 42.4829692], [-6.2918266, 42.4825907], [-6.2973456, 42.4832284], [-6.2994554, 42.483721], [-6.3017648, 42.4849334], [-6.3065332, 42.4866105], [-6.3081081, 42.4865735], [-6.309112, 42.4861318], [-6.3115568, 42.486352], [-6.3140012, 42.4883172], [-6.3156785, 42.4881112], [-6.3169755, 42.488385], [-6.3193595, 42.4899834], [-6.3210706, 42.4896645], [-6.3241624, 42.4915121], [-6.3270629, 42.4915537], [-6.3277264, 42.4912131], [-6.3286106, 42.4900954], [-6.3304948, 42.4896902], [-6.3344984, 42.4916257], [-6.3360398, 42.4915579], [-6.3398236, 42.4906895], [-6.3419002, 42.4909287], [-6.343211, 42.4917247], [-6.3453467, 42.4925342], [-6.3463582, 42.4926601], [-6.3501479, 42.4918278], [-6.350275, 42.4905246], [-6.3511328, 42.4898133], [-6.3522255, 42.4901948], [-6.3533042, 42.4912835], [-6.3548287, 42.4916474], [-6.3557735, 42.4908711], [-6.3581444, 42.4905946], [-6.3620097, 42.4886685], [-6.3634977, 42.488619], [-6.3665231, 42.4892792], [-6.3699219, 42.4891161], [-6.3727778, 42.4900355], [-6.3755375, 42.4884156], [-6.3781352, 42.4884888], [-6.3808343, 42.4875731], [-6.3842797, 42.4883254], [-6.3849711, 42.4891588], [-6.386765, 42.4902946], [-6.3876519, 42.4905331], [-6.3911981, 42.4899656], [-6.3918316, 42.4901255], [-6.3933033, 42.4912349], [-6.3947227, 42.4907887], [-6.3970399, 42.4912792], [-6.3982866, 42.4921071], [-6.3998207, 42.4917352], [-6.4039945, 42.4926369], [-6.40513, 42.4924655], [-6.4056006, 42.4921427], [-6.4059074, 42.4908864], [-6.4067352, 42.4896438], [-6.4077282, 42.4897432], [-6.4094676, 42.4904148], [-6.4111162, 42.4905817], [-6.4133008, 42.4896327], [-6.4182401, 42.489472], [-6.4191861, 42.4885818], [-6.420446, 42.4883265], [-6.4255464, 42.4892685], [-6.4269963, 42.4897991], [-6.4284938, 42.491058], [-6.4312034, 42.4918028], [-6.437947, 42.4910248], [-6.4392735, 42.4912053], [-6.4401994, 42.4916924], [-6.4415559, 42.493213], [-6.4426371, 42.4952481], [-6.4452339, 42.496348], [-6.4491579, 42.4969386], [-6.454102, 42.4969736], [-6.4551524, 42.4975521], [-6.4552582, 42.496894], [-6.4562088, 42.4982499], [-6.4583042, 42.4995684], [-6.4585501, 42.5004688], [-6.4594274, 42.5014746], [-6.4590544, 42.5017951], [-6.4597544, 42.5033243], [-6.4620316, 42.5058533], [-6.4640454, 42.5071026], [-6.4657298, 42.5071741], [-6.4663526, 42.5075598], [-6.4677098, 42.5096794], [-6.4694265, 42.511107], [-6.4714291, 42.513711], [-6.4719414, 42.5139734], [-6.4722575, 42.5149881], [-6.4720425, 42.5165092], [-6.4738014, 42.5177788], [-6.4773631, 42.5194809], [-6.4785433, 42.520575], [-6.4796778, 42.5222671], [-6.4858605, 42.525263], [-6.48783, 42.5253209], [-6.48952, 42.5258171], [-6.4905142, 42.5257342], [-6.4928191, 42.5262877], [-6.4935493, 42.5266741], [-6.4936911, 42.527738], [-6.4943976, 42.5284485], [-6.4980543, 42.5291951], [-6.5001545, 42.530217], [-6.5018603, 42.5302545], [-6.5014269, 42.5305058], [-6.5020937, 42.5306044], [-6.5029208, 42.5303887], [-6.5058166, 42.5304878], [-6.5070981, 42.5300389], [-6.5087303, 42.5302049], [-6.510651, 42.5310144], [-6.5105601, 42.5324998], [-6.5114036, 42.5329045], [-6.5109174, 42.5350895], [-6.5132692, 42.5341717], [-6.5138177, 42.5342081], [-6.5143789, 42.5347288], [-6.5166706, 42.5350243], [-6.5181371, 42.5375865], [-6.5190852, 42.5376063], [-6.5224224, 42.5387071], [-6.5259831, 42.5405071], [-6.5291954, 42.542544], [-6.5289325, 42.5428555], [-6.5295478, 42.5433064], [-6.534296, 42.5456459], [-6.53777, 42.5457439], [-6.5388438, 42.5464625], [-6.5404368, 42.5465876], [-6.5449525, 42.5464243], [-6.5484258, 42.5458489], [-6.5540992, 42.544116], [-6.5557676, 42.5439342], [-6.5581024, 42.5419613], [-6.5606346, 42.540647], [-6.5617744, 42.539292], [-6.5626791, 42.5387921], [-6.5640312, 42.5385146], [-6.5678248, 42.5389513], [-6.5696648, 42.5384325], [-6.5749953, 42.537875], [-6.5780369, 42.5361123], [-6.5788674, 42.5359802], [-6.5803247, 42.5362141], [-6.5808404, 42.5360229], [-6.5820281, 42.5349176], [-6.5831171, 42.5345618], [-6.5857537, 42.5352457], [-6.5875669, 42.5364827], [-6.5875788, 42.5362067], [-6.5897154, 42.5380304], [-6.5892325, 42.5392306], [-6.5906814, 42.5397109], [-6.5928932, 42.5412473], [-6.5929096, 42.543015], [-6.593432, 42.5430274], [-6.5926703, 42.5437702], [-6.5924397, 42.5445563], [-6.5909583, 42.5457712], [-6.5910886, 42.5460871], [-6.5905864, 42.5464344], [-6.5918303, 42.5464635], [-6.592449, 42.546869], [-6.5939037, 42.5471699], [-6.593864, 42.5476302], [-6.5958647, 42.5480291], [-6.5959934, 42.548268], [-6.5950935, 42.550915], [-6.5943264, 42.552059], [-6.5945571, 42.5522724], [-6.5939405, 42.554448], [-6.5944127, 42.5557897], [-6.5926124, 42.5569192], [-6.5924702, 42.5575396], [-6.5917754, 42.5579972], [-6.5888574, 42.5586127], [-6.5886467, 42.5589856], [-6.5933469, 42.5626859], [-6.5939037, 42.5627531], [-6.5950745, 42.563747], [-6.5953136, 42.5635683], [-6.5976374, 42.5653025], [-6.6010742, 42.5686733], [-6.6020596, 42.5706357], [-6.603221, 42.5709995], [-6.6040982, 42.5718673], [-6.6058985, 42.5722569], [-6.6086277, 42.5723576], [-6.6111716, 42.5733846], [-6.6119223, 42.5742494], [-6.6126167, 42.5745249], [-6.6272135, 42.575918], [-6.6321972, 42.5780828], [-6.6363072, 42.5770614], [-6.6390036, 42.5767687], [-6.6410122, 42.5773234], [-6.6449014, 42.5773992], [-6.6501323, 42.5769409], [-6.6533197, 42.5771166], [-6.6567263, 42.5769573], [-6.6583489, 42.5764023], [-6.6608981, 42.5760495], [-6.6659435, 42.5779749], [-6.6674106, 42.5786583], [-6.6679058, 42.5792067], [-6.6721451, 42.5811138], [-6.678998, 42.5872909], [-6.680744, 42.5869659], [-6.68334, 42.5882463], [-6.6861304, 42.5885222], [-6.6889441, 42.5893959], [-6.6901351, 42.5893767], [-6.6914534, 42.5897066], [-6.6925933, 42.5905619], [-6.699653, 42.5928161], [-6.7031659, 42.5935477], [-6.713058, 42.597311], [-6.7145108, 42.5985559], [-6.7165944, 42.5996296], [-6.7243152, 42.5998786], [-6.7260895, 42.5995762], [-6.7277368, 42.5999962], [-6.73141, 42.6001453], [-6.7371948, 42.6017106], [-6.7430426, 42.6046083], [-6.7503689, 42.6058156], [-6.7552168, 42.6062301], [-6.762463, 42.6043615], [-6.7655655, 42.6042179], [-6.7705431, 42.601306], [-6.7746077, 42.6017332], [-6.7763378, 42.6011916], [-6.7769954, 42.6015522], [-6.7814355, 42.6015913], [-6.7862301, 42.6025584], [-6.7875758, 42.6024299], [-6.789602, 42.6039281], [-6.7916755, 42.6047439], [-6.7964256, 42.604695], [-6.798593, 42.6039131], [-6.8026323, 42.6044751], [-6.8058212, 42.6045312], [-6.8083589, 42.604131], [-6.8094927, 42.6042413], [-6.8100134, 42.6044671], [-6.8108575, 42.6057311], [-6.8107507, 42.6086883], [-6.8119654, 42.6093747], [-6.8126492, 42.6093794], [-6.8135803, 42.6098155], [-6.8150663, 42.6124029], [-6.8149482, 42.6139168], [-6.8156909, 42.6149942], [-6.8166566, 42.6152468], [-6.8184666, 42.614777], [-6.8189107, 42.6140793], [-6.8189662, 42.6128246], [-6.8198735, 42.6117827], [-6.8205707, 42.6116741], [-6.8213826, 42.6130576], [-6.8210506, 42.6143056], [-6.8213534, 42.6148114], [-6.8221565, 42.6150457], [-6.8243028, 42.6149995], [-6.8263501, 42.6169074], [-6.8295488, 42.6184477], [-6.8305802, 42.6205427], [-6.8296504, 42.6222455], [-6.8300553, 42.6230828], [-6.8309843, 42.6233448], [-6.8325995, 42.6231199], [-6.833882, 42.6225199], [-6.835561, 42.6211033], [-6.8368621, 42.6210996], [-6.8396795, 42.6239699], [-6.8429764, 42.6254549], [-6.8438415, 42.6261106], [-6.8461882, 42.6266187], [-6.8474695, 42.6295178], [-6.8523606, 42.6335112], [-6.8533255, 42.6353927], [-6.8556423, 42.6376865], [-6.8572388, 42.6384834], [-6.8601278, 42.6388614], [-6.8620013, 42.6379762], [-6.8629044, 42.6379076], [-6.8675855, 42.6401694], [-6.8682049, 42.6420297], [-6.8718136, 42.6449942], [-6.8729056, 42.6463185], [-6.8762777, 42.6480532], [-6.8777062, 42.6480159], [-6.8804144, 42.6492196], [-6.8847165, 42.6497851], [-6.8871386, 42.650525], [-6.8893853, 42.6530164], [-6.8895, 42.6535496], [-6.8919618, 42.6552152], [-6.8928976, 42.6566154], [-6.8944206, 42.6570116], [-6.8955701, 42.6560005], [-6.895651, 42.6553448], [-6.8996706, 42.6544399], [-6.9048305, 42.6555107], [-6.9061913, 42.6564791], [-6.9082063, 42.6571625], [-6.909837, 42.6586664], [-6.9107998, 42.658685], [-6.9122323, 42.6577029], [-6.9133634, 42.6575913], [-6.9154546, 42.6593201], [-6.9169659, 42.6600659], [-6.9213133, 42.6599939], [-6.9247938, 42.6610293], [-6.926396, 42.6618788], [-6.9267236, 42.6634371], [-6.9266052, 42.6649944], [-6.9273923, 42.6658699], [-6.9305608, 42.6652362], [-6.935908, 42.6664303], [-6.9381359, 42.6664508], [-6.9390737, 42.6660855], [-6.9411904, 42.6640455], [-6.9423698, 42.6640478], [-6.9464722, 42.6653131], [-6.9544299, 42.6643988], [-6.95921, 42.6696419], [-6.9666292, 42.6728687], [-6.9676015, 42.6728296], [-6.9690009, 42.6716678], [-6.9705545, 42.6727035], [-6.9784358, 42.6723165], [-6.9789516, 42.6711173], [-6.9822157, 42.6705067], [-6.9858803, 42.6717774], [-6.9880467, 42.672886], [-6.9899964, 42.672744], [-6.9911514, 42.6731986], [-6.992984, 42.6732234], [-6.9959453, 42.675913], [-6.9969472, 42.6760992], [-6.9980906, 42.6756326], [-6.9996786, 42.6763127], [-7.0001488, 42.6766111], [-7.0002293, 42.6775191], [-7.0013404, 42.678731], [-7.0030838, 42.6800891], [-7.0036278, 42.6802321], [-7.0034951, 42.6797218], [-7.0040907, 42.6800131], [-7.0050808, 42.6810381], [-7.0062945, 42.6816606], [-7.0058811, 42.6819125], [-7.0076237, 42.6831385], [-7.0077868, 42.6833884], [-7.0073304, 42.6835059], [-7.0077025, 42.6839658], [-7.0094778, 42.6847121], [-7.011266, 42.6867388], [-7.0117122, 42.6869136], [-7.0124823, 42.6865455], [-7.0129486, 42.6869438], [-7.0126178, 42.6879215], [-7.0129752, 42.6890887], [-7.0147698, 42.689941], [-7.0154834, 42.6919971], [-7.0170312, 42.692696], [-7.0180389, 42.6936278], [-7.0185836, 42.6950287], [-7.018458, 42.6964471], [-7.0200269, 42.6979658], [-7.0198438, 42.69931], [-7.0211426, 42.7010176], [-7.0220973, 42.7013284], [-7.0242076, 42.7038159], [-7.0264709, 42.7058754], [-7.027703, 42.7058848], [-7.0296413, 42.7065915], [-7.0306488, 42.7057861], [-7.0313924, 42.7059094], [-7.0331318, 42.7072755], [-7.0353467, 42.7079722], [-7.0374159, 42.7071953], [-7.0415974, 42.707699], [-7.0432697, 42.7074297], [-7.0437521, 42.707825], [-7.046778, 42.7077024], [-7.049828, 42.70623], [-7.0504244, 42.7049555], [-7.0515872, 42.7046066], [-7.0538975, 42.7024976], [-7.0565344, 42.7015492], [-7.057708, 42.7004382], [-7.0619545, 42.7014845], [-7.0671609, 42.7001103], [-7.0687848, 42.7005144], [-7.0698039, 42.7010891], [-7.0702134, 42.7020401], [-7.0741035, 42.6985286], [-7.0758404, 42.6980422], [-7.0782424, 42.6989299], [-7.0793058, 42.6989699], [-7.0802015, 42.6987016], [-7.0811997, 42.6988797], [-7.0843677, 42.6987347], [-7.0903998, 42.6996379], [-7.0939926, 42.7012688], [-7.0977818, 42.7040979], [-7.0990521, 42.7043509], [-7.0996382, 42.704827], [-7.1040177, 42.7054473], [-7.1056654, 42.7051443], [-7.1080182, 42.7059111], [-7.1086613, 42.7077264], [-7.1091801, 42.7078308], [-7.1104907, 42.707476], [-7.1113291, 42.7079115], [-7.1115146, 42.7099903], [-7.1126045, 42.7099314], [-7.1143265, 42.710618], [-7.1161851, 42.7098598], [-7.1178076, 42.709633], [-7.1183661, 42.7105322], [-7.1205557, 42.71072], [-7.1235156, 42.7122579], [-7.1251847, 42.7123185], [-7.1253833, 42.7127576], [-7.126091, 42.7125001], [-7.1286856, 42.714093], [-7.1294513, 42.7151115], [-7.1309183, 42.7160441], [-7.1335711, 42.716682], [-7.1359455, 42.7180997], [-7.1393843, 42.7191633], [-7.1411858, 42.7210624], [-7.1427123, 42.7219686], [-7.1467286, 42.723397], [-7.1512125, 42.7264838], [-7.153352, 42.7273911], [-7.1565449, 42.7310201], [-7.1600209, 42.7332033], [-7.1622994, 42.7342284], [-7.1670384, 42.7356461], [-7.1701189, 42.7370229], [-7.1709826, 42.7372316], [-7.1722192, 42.7368893], [-7.1735553, 42.737127], [-7.1751411, 42.7397627], [-7.1779208, 42.7420785], [-7.1780011, 42.7436621], [-7.1783999, 42.7442352], [-7.1820907, 42.7435955], [-7.1835149, 42.7438477], [-7.1843062, 42.7442795], [-7.1860995, 42.7437199], [-7.1870264, 42.7438671], [-7.1878488, 42.744753], [-7.1887249, 42.744682], [-7.1896179, 42.7438865], [-7.1911186, 42.7409386], [-7.1924349, 42.7401232], [-7.193162, 42.7405934], [-7.1952187, 42.7406394], [-7.2009402, 42.7434605], [-7.2020223, 42.7434829], [-7.2046805, 42.7424361], [-7.2047272, 42.7440449], [-7.2062627, 42.7431143], [-7.2064908, 42.7438127], [-7.2092911, 42.7448431], [-7.2118364, 42.7453648], [-7.2148699, 42.7471864], [-7.2161051, 42.7475453], [-7.2175451, 42.7474153], [-7.218687, 42.748468], [-7.2195963, 42.7488484], [-7.2201909, 42.7501253], [-7.221381, 42.7508667], [-7.2238833, 42.750724], [-7.2251871, 42.751431], [-7.2263006, 42.7535972], [-7.2292888, 42.7556212], [-7.2306689, 42.7558618], [-7.2318824, 42.7556289], [-7.233832, 42.7561541], [-7.2371168, 42.7561033], [-7.2416882, 42.7558698], [-7.2435992, 42.7551142], [-7.2442883, 42.7575713], [-7.2463657, 42.7601363], [-7.2478088, 42.7607506], [-7.2486042, 42.7614396], [-7.2497623, 42.7644681], [-7.2525023, 42.7658218], [-7.2536365, 42.7659789], [-7.2558108, 42.7683728], [-7.2579053, 42.7690857], [-7.2592393, 42.7700163], [-7.2606574, 42.7705471], [-7.2620042, 42.7703424], [-7.2627019, 42.7698226], [-7.2641757, 42.7694597], [-7.2648336, 42.7688829], [-7.267552, 42.7684909], [-7.2680734, 42.7686239], [-7.2711833, 42.7674607], [-7.2725033, 42.7662161], [-7.2743419, 42.765733], [-7.2755079, 42.7658415], [-7.2762346, 42.7651105], [-7.2777458, 42.7644248], [-7.2799423, 42.7643202], [-7.2808309, 42.7645154], [-7.2825399, 42.7657032], [-7.2829107, 42.7667238], [-7.2826454, 42.7678345], [-7.2831357, 42.7680642], [-7.2858344, 42.7674134], [-7.2884533, 42.767775], [-7.2921591, 42.766599], [-7.2959232, 42.7659939], [-7.2976155, 42.7667342], [-7.3025694, 42.7665979], [-7.3029009, 42.7667521], [-7.3030798, 42.7674986], [-7.3052952, 42.768642], [-7.3066772, 42.7678769], [-7.3078199, 42.7678207], [-7.3096057, 42.7688027], [-7.3104806, 42.7699507], [-7.3106671, 42.7712047], [-7.3097883, 42.7729918], [-7.3107133, 42.772216], [-7.3113416, 42.7711645], [-7.3117209, 42.7716085], [-7.3138533, 42.7708283], [-7.3149364, 42.7713759], [-7.3162105, 42.7711767], [-7.3175753, 42.7715193], [-7.3182985, 42.7718747], [-7.3184959, 42.772463], [-7.3206494, 42.7725109], [-7.3253324, 42.7739463], [-7.3268175, 42.7736536], [-7.3274919, 42.7726373], [-7.3292895, 42.7732158], [-7.3338103, 42.7727913], [-7.3356197, 42.7730204], [-7.3381179, 42.7740235], [-7.3392416, 42.7738221], [-7.3401531, 42.7744714], [-7.3416186, 42.7748781], [-7.3463098, 42.7740181], [-7.3513846, 42.7738515], [-7.3536262, 42.7733506], [-7.3553623, 42.7738362], [-7.3589456, 42.7736319], [-7.3602848, 42.7738386], [-7.3624822, 42.7736528], [-7.3643635, 42.7731618], [-7.3657613, 42.7734088], [-7.368381, 42.7731404], [-7.3743127, 42.7735412], [-7.3777414, 42.7741546], [-7.3829602, 42.7757477], [-7.3843576, 42.7766542], [-7.3884922, 42.7761406], [-7.393288, 42.776414], [-7.3976571, 42.7762286], [-7.4004825, 42.7756278], [-7.4029727, 42.7758138], [-7.4040721, 42.7756309], [-7.4059718, 42.7759478], [-7.4073828, 42.7756462], [-7.4084169, 42.7749255], [-7.4089879, 42.775051], [-7.4094273, 42.7755194], [-7.4112492, 42.7757351], [-7.411385, 42.7762163], [-7.4110212, 42.7766514], [-7.4114641, 42.7767958], [-7.4121946, 42.7760792], [-7.4128205, 42.7764261], [-7.4127079, 42.7767147], [-7.4147097, 42.7774231], [-7.4155461, 42.7774288], [-7.4175923, 42.7768319], [-7.4179265, 42.7774644], [-7.4199789, 42.7780167], [-7.4208437, 42.7785198], [-7.4224096, 42.7766703], [-7.4234285, 42.7783763], [-7.4251751, 42.777953], [-7.4268261, 42.7766151], [-7.426595, 42.7762721], [-7.4283466, 42.7747273], [-7.4302932, 42.7741438], [-7.4311406, 42.7727169], [-7.4343427, 42.772327], [-7.4363647, 42.7723804], [-7.4357794, 42.7720466], [-7.4360231, 42.7713771], [-7.4396408, 42.7698021], [-7.4402769, 42.7703676], [-7.4433334, 42.7708899], [-7.4444157, 42.7695529], [-7.4442273, 42.7687129], [-7.4453846, 42.7685125], [-7.4471262, 42.7669334], [-7.4490408, 42.7665339], [-7.4503487, 42.7659251], [-7.4517373, 42.7670924], [-7.4528755, 42.7685883], [-7.4541785, 42.7692839], [-7.4562257, 42.7695276], [-7.4570355, 42.7688795], [-7.4589988, 42.7680485], [-7.459705, 42.7686849], [-7.4609277, 42.7691861], [-7.4633139, 42.7692921], [-7.4638508, 42.769629], [-7.4664438, 42.7702027], [-7.466816, 42.7709303], [-7.4672738, 42.7710754], [-7.4671659, 42.7715815], [-7.4680759, 42.7724687], [-7.471872, 42.7750012], [-7.4759779, 42.7738087], [-7.4772344, 42.7731652], [-7.4798472, 42.7725651], [-7.4800959, 42.7743358], [-7.4807264, 42.775066], [-7.4819516, 42.7780727], [-7.4834169, 42.7806892], [-7.4842203, 42.781159], [-7.4909902, 42.781017], [-7.4943756, 42.7802035], [-7.4956208, 42.7809649], [-7.4959445, 42.7806889], [-7.4960783, 42.779555], [-7.4992437, 42.7789919], [-7.5003959, 42.777877], [-7.5028297, 42.7772957], [-7.5045921, 42.7775075], [-7.505906, 42.7771644], [-7.506744, 42.7774847], [-7.5084717, 42.778814], [-7.5098507, 42.7783468], [-7.5114113, 42.7787779], [-7.5144892, 42.7789562], [-7.5157098, 42.7795775], [-7.5192611, 42.7804424], [-7.5207101, 42.7814301], [-7.5211821, 42.7821169], [-7.5213974, 42.7835344], [-7.5210339, 42.7840782], [-7.5214901, 42.784872], [-7.5221235, 42.785277], [-7.5274288, 42.7836436], [-7.5303978, 42.7839226], [-7.5319699, 42.7834675], [-7.5347172, 42.7835215], [-7.5402974, 42.7843146], [-7.5423471, 42.7851126], [-7.5426548, 42.7847372], [-7.5446504, 42.7849041], [-7.5460141, 42.7843937], [-7.5463902, 42.7851455], [-7.5487258, 42.7840657], [-7.5499834, 42.7839633], [-7.5511979, 42.7842886], [-7.5539464, 42.7839156], [-7.5556616, 42.782794], [-7.556644, 42.7831457], [-7.5575192, 42.784341], [-7.5582114, 42.7846184], [-7.5590678, 42.7845532], [-7.5609011, 42.7860123], [-7.5620901, 42.7862582], [-7.5629848, 42.7869569], [-7.5670756, 42.7885047], [-7.5693886, 42.788853], [-7.5708108, 42.78957], [-7.5725132, 42.7909061], [-7.5761809, 42.791079], [-7.5790269, 42.7907926], [-7.5825509, 42.7912159], [-7.5834415, 42.7914581], [-7.5847378, 42.7931771], [-7.5869012, 42.7940352], [-7.5877779, 42.7939171], [-7.5898834, 42.7943303], [-7.5912273, 42.7942833], [-7.5936143, 42.7948854], [-7.5985058, 42.7955618], [-7.6018826, 42.7954656], [-7.6031853, 42.7956622], [-7.6041461, 42.7951067], [-7.6046905, 42.7950975], [-7.6090318, 42.7960142], [-7.6092934, 42.7963172], [-7.6090081, 42.7965764], [-7.6107181, 42.796476], [-7.613243, 42.7989939], [-7.6141463, 42.7993083], [-7.61498, 42.8000718], [-7.617227, 42.8008643], [-7.6151181, 42.8022078], [-7.6171675, 42.8054522], [-7.6165892, 42.8061072], [-7.6170444, 42.8064843], [-7.6179775, 42.8061809], [-7.6194961, 42.8065105], [-7.620934, 42.806457], [-7.6194176, 42.8061713], [-7.6190241, 42.8057606], [-7.6199244, 42.8053653], [-7.6220298, 42.8052179], [-7.623833, 42.80465], [-7.6251259, 42.8046742], [-7.6307236, 42.8060712], [-7.6323783, 42.8071141], [-7.6337336, 42.8075774], [-7.6367331, 42.8066266], [-7.6375898, 42.8066087], [-7.6392215, 42.8070555], [-7.6396424, 42.8078714], [-7.6403961, 42.808333], [-7.6411931, 42.8074815], [-7.6427693, 42.8072572], [-7.6445844, 42.810908], [-7.6461651, 42.8116733], [-7.6590787, 42.8120872], [-7.6638325, 42.8127424], [-7.6649475, 42.8135677], [-7.6676904, 42.8147288], [-7.6720636, 42.816211], [-7.6740876, 42.8164745], [-7.6766332, 42.8191687], [-7.6765508, 42.8196078], [-7.679058, 42.8209274], [-7.686335, 42.8222503], [-7.6906073, 42.8246034], [-7.695646, 42.8261772], [-7.6971494, 42.8269744], [-7.6981641, 42.826742], [-7.6986665, 42.8269319], [-7.702193, 42.8296413], [-7.704101, 42.8300729], [-7.7055799, 42.8308624], [-7.7095696, 42.831893], [-7.7119802, 42.8332091], [-7.7137611, 42.8337555], [-7.7170324, 42.8334842], [-7.7186069, 42.8341253], [-7.7200588, 42.8342343], [-7.7213547, 42.8339935], [-7.7243006, 42.8362381], [-7.7309098, 42.8385205], [-7.734589, 42.8412325], [-7.7346635, 42.841601], [-7.7337275, 42.8419183], [-7.7343386, 42.8423305], [-7.7355047, 42.8418106], [-7.7376077, 42.8424971], [-7.7458865, 42.8435196], [-7.7526062, 42.8453619], [-7.7557641, 42.8458074], [-7.757932, 42.8478369], [-7.7604265, 42.8496431], [-7.7699308, 42.852483], [-7.7726924, 42.8526578], [-7.7740419, 42.8537695], [-7.7775395, 42.8554072], [-7.7798481, 42.858887], [-7.7814847, 42.8600268], [-7.7834085, 42.862194], [-7.7850599, 42.8627274], [-7.7853991, 42.8635268], [-7.7873331, 42.8653688], [-7.7884323, 42.8656227], [-7.7904079, 42.8655559], [-7.7914893, 42.8659608], [-7.7937277, 42.8662676], [-7.7976886, 42.8682728], [-7.8011111, 42.8709963], [-7.8036982, 42.8720365], [-7.8057794, 42.8737362], [-7.8075562, 42.8734741], [-7.808901, 42.8736869], [-7.8118167, 42.8723484], [-7.8140168, 42.8721392], [-7.8157696, 42.8731791], [-7.8173254, 42.8734098], [-7.8180413, 42.8741583], [-7.8215606, 42.8731206], [-7.8247205, 42.8729143], [-7.8261872, 42.8732703], [-7.8303675, 42.8754145], [-7.8350161, 42.8759628], [-7.8373019, 42.8756691], [-7.8397101, 42.8744586], [-7.8484705, 42.8742861], [-7.8510128, 42.8748997], [-7.8529037, 42.874278], [-7.8548112, 42.874031], [-7.8625545, 42.8733069], [-7.8639872, 42.8733826], [-7.8652057, 42.8728413], [-7.8667657, 42.8728984], [-7.868103, 42.872412], [-7.8684008, 42.8729849], [-7.8690843, 42.8732526], [-7.8725288, 42.8733497], [-7.8731045, 42.8742189], [-7.8744503, 42.8742756], [-7.8756697, 42.8736757], [-7.8756913, 42.8734284], [-7.8795967, 42.8726897], [-7.8821032, 42.872659], [-7.8831109, 42.8716681], [-7.8849346, 42.8713169], [-7.8901744, 42.8718047], [-7.8895155, 42.8709066], [-7.8894819, 42.8701908], [-7.8909015, 42.8702316], [-7.8975811, 42.8715989], [-7.899489, 42.8733049], [-7.9016591, 42.8745267], [-7.9040776, 42.8743925], [-7.9054092, 42.8751476], [-7.9079138, 42.8755053], [-7.9089873, 42.8759459], [-7.9099326, 42.8767291], [-7.9124375, 42.8777676], [-7.914138, 42.8780962], [-7.9150728, 42.8789947], [-7.9164021, 42.8791237], [-7.9191819, 42.8800063], [-7.9217019, 42.8799978], [-7.9238924, 42.879377], [-7.9258385, 42.879263], [-7.9272899, 42.8787417], [-7.9285941, 42.8787329], [-7.9309515, 42.8791469], [-7.9319681, 42.8799932], [-7.9345961, 42.8807994], [-7.9371094, 42.8804549], [-7.938671, 42.881208], [-7.942909, 42.8802267], [-7.9441983, 42.8806299], [-7.9449102, 42.880569], [-7.9468391, 42.8817164], [-7.9483583, 42.881863], [-7.95001, 42.8814731], [-7.9527903, 42.8815658], [-7.9554575, 42.8828542], [-7.9584051, 42.8847381], [-7.9642287, 42.8867284], [-7.9663484, 42.888243], [-7.9671259, 42.8896277], [-7.9689864, 42.8901502], [-7.9734489, 42.8938828], [-7.9744753, 42.8942496], [-7.9761438, 42.8935633], [-7.9807377, 42.8976117], [-7.9901391, 42.9026254], [-7.9912799, 42.9027335], [-7.9931095, 42.9036941], [-7.9946889, 42.9041497], [-7.9966406, 42.906258], [-7.9972413, 42.9075924], [-7.9979478, 42.9081686], [-7.9987914, 42.9081699], [-7.9987554, 42.908736], [-7.9992162, 42.9090562], [-7.9999479, 42.909274], [-8.0023967, 42.9091278], [-8.0042116, 42.910313], [-8.0083815, 42.9118969], [-8.0102564, 42.912331], [-8.0110767, 42.9127013], [-8.0115603, 42.9133466], [-8.0146134, 42.9139109], [-8.0149953, 42.9144057], [-8.0192978, 42.9137326], [-8.0221947, 42.9125091], [-8.0245036, 42.9111354], [-8.0272859, 42.9119954], [-8.0294226, 42.912184], [-8.0335084, 42.9120206], [-8.0369718, 42.9126137], [-8.0391304, 42.9134752], [-8.0407648, 42.9149691], [-8.0419952, 42.9154903], [-8.0426141, 42.9162561], [-8.0447195, 42.9163843], [-8.0465132, 42.9160071], [-8.0478525, 42.9167058], [-8.0488714, 42.9165697], [-8.0498788, 42.9173968], [-8.051435, 42.9175982], [-8.0523284, 42.9168922], [-8.054722, 42.9159389], [-8.0573352, 42.9153847], [-8.0600502, 42.9154744], [-8.0636622, 42.9165646], [-8.0642979, 42.917042], [-8.0700727, 42.9157332], [-8.0722249, 42.9159701], [-8.073592, 42.9155221], [-8.0743422, 42.9159569], [-8.0779494, 42.9160572], [-8.078052, 42.9164063], [-8.0789481, 42.9168069], [-8.079344, 42.9178502], [-8.0811169, 42.918332], [-8.0830791, 42.918465], [-8.0842794, 42.9179551], [-8.0875203, 42.9187063], [-8.0892003, 42.9185574], [-8.0889257, 42.9191579], [-8.0909382, 42.9195096], [-8.0924225, 42.9205012], [-8.0934459, 42.9224599], [-8.0946719, 42.9238775], [-8.0954662, 42.924299], [-8.0972704, 42.9247764], [-8.0982992, 42.9245494], [-8.1016768, 42.9246649], [-8.1037702, 42.9254067], [-8.1041358, 42.9258952], [-8.1041392, 42.9267311], [-8.10947, 42.9281083], [-8.1109646, 42.9280689], [-8.1125937, 42.9270961], [-8.1130454, 42.9278759], [-8.1140295, 42.9286219], [-8.1185887, 42.9294582], [-8.1202779, 42.9293885], [-8.1228971, 42.9301494], [-8.1250205, 42.9302359], [-8.1272846, 42.9310361], [-8.1296152, 42.9310413], [-8.1315369, 42.9304508], [-8.1346252, 42.9309884], [-8.1352143, 42.9305232], [-8.1355644, 42.9292212], [-8.1359489, 42.9292479], [-8.1363453, 42.9288482], [-8.1361994, 42.9304837], [-8.1377603, 42.9309672], [-8.1400203, 42.930784], [-8.1420603, 42.929936], [-8.1525842, 42.9299449], [-8.16321, 42.9262224], [-8.1655132, 42.9263072], [-8.1668163, 42.9267754], [-8.1698996, 42.9271595], [-8.1715053, 42.9270328], [-8.1734358, 42.9275012], [-8.173846, 42.9273594], [-8.1744599, 42.9263566], [-8.177255, 42.9253463], [-8.1791468, 42.9252822], [-8.1802335, 42.9256253], [-8.1808408, 42.924781], [-8.1843367, 42.9241707], [-8.1851428, 42.9228363], [-8.1856247, 42.9226158], [-8.1869186, 42.9225917], [-8.1882844, 42.9231718], [-8.1886038, 42.9230328], [-8.1901776, 42.9261633], [-8.1928939, 42.9261486], [-8.1950543, 42.9266796], [-8.1960131, 42.9265818], [-8.1978087, 42.9258897], [-8.1993356, 42.9270632], [-8.2009664, 42.9277028], [-8.2022248, 42.9278247], [-8.2044095, 42.9274631], [-8.207849, 42.9275559], [-8.2105182, 42.928591], [-8.2140187, 42.9287643], [-8.2180339, 42.92699], [-8.224063, 42.9255194], [-8.2263824, 42.9245244], [-8.2290078, 42.9228328], [-8.2336285, 42.9209952], [-8.2356232, 42.9203854], [-8.2371161, 42.9203511], [-8.2376359, 42.9198154], [-8.2396774, 42.9189335], [-8.240543, 42.9181338], [-8.2415675, 42.9177312], [-8.2432325, 42.918244], [-8.2436716, 42.9176528], [-8.2444688, 42.9175857], [-8.2447362, 42.9178085], [-8.2456925, 42.9177507], [-8.2509421, 42.9187672], [-8.2528161, 42.9197069], [-8.2541302, 42.921156], [-8.256939, 42.9222767], [-8.2601408, 42.9222922], [-8.261597, 42.9224781], [-8.2650817, 42.9235763], [-8.2670222, 42.9235173], [-8.2690135, 42.9248928], [-8.2737103, 42.9257352], [-8.2755261, 42.9264249], [-8.2768218, 42.9264714], [-8.2776432, 42.9262307], [-8.2802915, 42.9264233], [-8.2836841, 42.9254152], [-8.2879284, 42.9249906], [-8.2903647, 42.9241909], [-8.2917266, 42.9232337], [-8.2960642, 42.9213506], [-8.297299, 42.9204298], [-8.2989724, 42.9201719], [-8.2999006, 42.9193358], [-8.301108, 42.9188269], [-8.3034673, 42.9193041], [-8.305171, 42.9190651], [-8.3052715, 42.918811], [-8.3068542, 42.9190078], [-8.3078551, 42.9184766], [-8.3106871, 42.9183222], [-8.3104543, 42.91749], [-8.3154651, 42.9169816], [-8.3214688, 42.9153621], [-8.3237634, 42.9153378], [-8.3234135, 42.9165591], [-8.3253956, 42.9163416], [-8.3304767, 42.9174909], [-8.3308643, 42.9168829], [-8.3313427, 42.9167595], [-8.3341817, 42.9180861], [-8.3390248, 42.9183808], [-8.3430713, 42.9171471], [-8.3432414, 42.9165815], [-8.3454058, 42.9159938], [-8.3478777, 42.9146435], [-8.3489517, 42.9143249], [-8.3494992, 42.9147097], [-8.3500964, 42.9146742], [-8.3528305, 42.9136847], [-8.3543128, 42.912772], [-8.3575587, 42.9122986], [-8.3600158, 42.9105796], [-8.3636749, 42.9090846], [-8.3632146, 42.9086346], [-8.3640446, 42.9071901], [-8.365528, 42.9083439], [-8.3688852, 42.9072161], [-8.3705224, 42.9062621], [-8.3710019, 42.9064752], [-8.3718803, 42.9057546], [-8.3724628, 42.9061355], [-8.3740684, 42.9057243], [-8.3758565, 42.904244], [-8.3784591, 42.9036529], [-8.3813237, 42.9037563], [-8.3816346, 42.9035446], [-8.3861008, 42.9048389], [-8.3871056, 42.903217], [-8.3891028, 42.9038029], [-8.3898579, 42.9043439], [-8.3908808, 42.9044187], [-8.3915862, 42.9052976], [-8.3934311, 42.9059636], [-8.3977612, 42.9054847], [-8.3996265, 42.9063862], [-8.4014618, 42.9060382], [-8.4022903, 42.9061745], [-8.4036493, 42.9057415], [-8.4045457, 42.9059144], [-8.4086763, 42.9057223], [-8.4101652, 42.9062222], [-8.4111998, 42.9073884], [-8.4148218, 42.9083549], [-8.4140735, 42.9136461], [-8.4196464, 42.9136669], [-8.4221241, 42.9134397], [-8.4235702, 42.9125781], [-8.4244018, 42.9109909], [-8.4237207, 42.9087407], [-8.4259907, 42.9089484], [-8.4279001, 42.9071708], [-8.4297436, 42.9063247], [-8.4303385, 42.9057095], [-8.4319658, 42.9052553], [-8.433765, 42.9043486], [-8.4351173, 42.904202], [-8.4384469, 42.9019812], [-8.4425038, 42.9015316], [-8.443806, 42.900982], [-8.4467401, 42.9003314], [-8.4468442, 42.8998587], [-8.4464947, 42.8995435], [-8.4445856, 42.8992132], [-8.4441623, 42.8983263], [-8.4475348, 42.8971161], [-8.4478232, 42.8952077], [-8.4471389, 42.8944916], [-8.4498369, 42.8921256], [-8.4496549, 42.8915798], [-8.4524873, 42.8913697], [-8.4530951, 42.8909867], [-8.4547398, 42.8908651], [-8.4569401, 42.8901168], [-8.4597382, 42.8905776], [-8.4636275, 42.8904288], [-8.4758784, 42.8920809], [-8.4766561, 42.8924256], [-8.4763309, 42.8905054], [-8.4857897, 42.8907599], [-8.4862644, 42.8905934], [-8.4873703, 42.8907989], [-8.4877894, 42.891553], [-8.4913901, 42.8907518], [-8.4999257, 42.887724], [-8.5017378, 42.8878836], [-8.5043777, 42.8873123], [-8.5045586, 42.8868149], [-8.504802, 42.8869639], [-8.5067748, 42.8865892], [-8.5098181, 42.8864813], [-8.5104231, 42.8861823], [-8.517077, 42.8862333], [-8.5225452, 42.8871829], [-8.5251244, 42.8872109], [-8.5275699, 42.8862038], [-8.5302146, 42.8858724], [-8.531752, 42.8850076], [-8.5330098, 42.8851843], [-8.5339251, 42.8843069], [-8.5344083, 42.8824961], [-8.5350742, 42.8818189], [-8.5380449, 42.8812621], [-8.5401504, 42.8819897], [-8.5424237, 42.8811585], [-8.5437815, 42.8812387], [-8.5454273, 42.8809377], [-8.5457492, 42.8804942]]}}]}